Building,Street,Locality,Landmark,VTC,Sub-District,District,State,Pincode,Mobile
No. 1085 Pattabhi Ram Shastry Lane,,Nagarath Pet Cross,,Bengaluru North,,Bengaluru,Karnataka,,
No 40,Store Street,Kalasipalya,Near Popular Nursing Home,Bengaluru North,,Bengaluru,Karnataka,,
No. 15B New Gangama Chart Street,Mothi Nagar,Mothinagar,,Bengaluru North,,Bengaluru,Karnataka,,
No. 39,3Rd Cross,Kalasipalyam,Near New Bomboo Bazaar,Bengaluru North,,Bengaluru,Karnataka,,
No. 5 Admatha,1S Cross,J C Road Cross,Mujawar Transport,Bengaluru North,,Bengaluru,Karnataka,,
"No. 76 , 79",Gudapan Street,City Market,,Bengaluru North,,Bengaluru,Karnataka,,
No 141,,Cubbon Pet Main Road,,Bengaluru,,,Karnataka,,
No. 965,Sher Khan Road,Nagarath Pet,Dharmaraya Temple,Bengaluru North,,Bengaluru,Karnataka,,
"26, 1St Floor",Andanappa Lane K R Shetty Pet,,Mysuru Bank Avenue Road,Bengaluru North,,Bengaluru,Karnataka,,
No 50,J C Road,Thayappa Layout,Maurya Hotel,Bengaluru,,,Karnataka,,
No. 64-3,Ganigara A Lane Ulssor Pete,Chamarajapete,,Bengaluru City,,Bengaluru,Karnataka,,
No. 4 Ground Floor,Express New City Complex,13 N R Road,,Bengaluru North,,Bengaluru,Karnataka,,
No. A-4/1,O T C Road,Chamrajpete,Near Pai Vihar,Bengaluru North,,Bengaluru,Karnataka,,
No. 10/4 4Th Floor Mahalakshmi Residency,24Th Cross,Cubbonpet Main Road,,Bengaluru North,,Bengaluru,Karnataka,,
No. 8,Fort F Street,Kalasipalyam,,Bengaluru North,,Bengaluru,Karnataka,,
No. A-4/1,O T C Road,Chamrajpete,Near Pai Vihar,Bengaluru North,,Bengaluru,Karnataka,,
"No.  219 / 3,3Rd Floor, Dattathraya Nilaya",Cubbonpete Main Road,Cubbonpete,Oppsilk Exchange Board,Bengaluru North,,Bengaluru,Karnataka,,
No.  29/5,M S Lane Cubbon Pet,Narayanashetty Lane J M Road Cross,,Bengaluru,,,Karnataka,,
"No, 10",Ganigar C Lane,Nagrath Pet Cross,Jumma Masjid,Bengaluru,,,Karnataka,,
No.  19/1,15Th Cross,Cubbon Pet,,Bengaluru,,,Karnataka,,
No.  19/1,15Th Cross,Cubbon Pet,,Bengaluru,,,Karnataka,,
No.  51,P R S Lane,Nagarthpet Cross,,Bengaluru,,,Karnataka,,
No. 14,Barline Masjid Compound,Mysuru Road,,Bengaluru North,,Bengaluru,Karnataka,,
"No. 29/5, 1St Floor",M S Lane,Narayanashetty Lane J M Road Cross,,Bengaluru,,,Karnataka,,
No.  7 1St Floor,Nagrath Pet Cross,Maldar Pet,,Bengaluru North,,Bengaluru,Karnataka,,
No.  8/1,1St Cross,Kalasipalyam,,Bengaluru,,,Karnataka,,
No. 90/B,4Th Floor 18Th Cross,Cubbonpete,,Bengaluru North,,Bengaluru,Karnataka,,
"No. 47, 1St Floor",Chikkannamma Temple Street,Srirampuram,Joripete,Bengaluru North,,Bengaluru,Karnataka,,
No.  388/1,,Mangammana Palya,Opp. Ayisha Masjid,Bengaluru North,,Bengaluru,Karnataka,,
No.  17,2Nd Cross,Poters Colony,,Bengaluru,,,Karnataka,,
No.  74,Store Street M R R Lane,Kalasipalya,,Bengaluru,,,Karnataka,,
No. 35,Annamma Temple Road,Jori Cubbon Pete,Cubbon Pete,Bengaluru City,,Bengaluru,Karnataka,,
No. Dasappa Maternity Home Qutrs,B B M P S J P Road,J C Road,,Bengaluru City,,Bengaluru,Karnataka,,
No. 33,Cubbonpet Main Road,Cubbonpet,Opp 10Th Cross,Bengaluru North,,Bengaluru,Karnataka,,
No.  26,,C Street Fort,,Bengaluru,,,Karnataka,,
No.  6/7,Mudilyar Garden,Kalasipalyam,,Bengaluru,,,Karnataka,,
No.  08 Muni Ramappa Compund,Geddala Halli,Sanjay Nagar,Near Anjaneya Temple,Bengaluru City,,Bengaluru,Karnataka,,
No.  3,Ganigara D Lane,Nagarath Pet,,Bengaluru,,,Karnataka,,
No 11/2,Ramaswamy Setty Lane  M M Lane,Ganigar Pet Nagarath Cross,,Bengaluru North,,Bengaluru,Karnataka,,
No 11/2,Ramaswamy Setty Lane  M M Lane,Ganigar Pet Nagarath Cross,,Bengaluru South,,Bengaluru,Karnataka,,
No.  92/1,Thimmaih Road Cross,Kalasipalya,,Bengaluru,,,Karnataka,,
No. 16,21St Cross,Cubbonpet,Near S B M,Bengaluru Central,,Bengaluru,Karnataka,,
No. 20/2,11Th Cross,Cubbon Pet,Adjus Cent To K G Road,Bengaluru North,,Bengaluru,Karnataka,,
No. 25,Yallappa Garden,J C Road,,Bengaluru North,,Bengaluru,Karnataka,,
"No. 15, 4Th Floor",15 Munoth Mansion 18Th Cross,Cubbonpet,,Bengaluru,,,Karnataka,,
"No. 15, 4Th Floor",15 Munot Mansion 18Th Cross,Cubbonpet,,Bengaluru,,,Karnataka,,
No. 18,J C Road,Thayappa Layout,,Bengaluru North,,Bengaluru,Karnataka,,
No. 1392,4Th Cross,Gandhi Nagar K G Halli,,Bengaluru,,,Karnataka,,
No. 118,Anjaneya Temple Street,Maruthi Nagar Yelahanka,Cobban Pet Market,Bengaluru North,,Bengaluru,Karnataka,,
No 72,,Appajappa Garden Kalasi Palya,,Bengaluru,,,Karnataka,,
No. 18,J C Road,Thayappa Layout,,Bengaluru North,,Bengaluru,Karnataka,,
No. 20/1,11Th Cross Cubbon Pet,Cubbon Pet,,Bengaluru North,,Bengaluru,Karnataka,,
No. 120,1St Main 3Rd Cross,Agrahara Layout,,Bengaluru,,,Karnataka,,
"15/4, 5, K Malaji",1St Main 4Th Cross Karagappa Garden,S R Nagar,,Bengaluru,,,Karnataka,,
No. 4,Narayana Swamy Garden,J C Road,,Bengaluru North,,Bengaluru,Karnataka,,
No. No-3,Gollar Ganganna Lane,Nagarth Pet Cross,,Bengaluru,,,Karnataka,,
,,Dharmaraya Swamy Temple Street,,Bengaluru North,,Bengaluru,Karnataka,,
No.  6,Kote B Road,Kalasipalyam,,Bengaluru,,,Karnataka,,
No. 1/1,12Th Cross,Cubbon Pet,,Bengaluru North,,Bengaluru,Karnataka,,
No.  27/8,Muneshwara Mutt,Kalasipalyam,,Bengaluru North,,Bengaluru,Karnataka,,
No.  27/8,Muneshwara Mutt,Kalasipalyam,,Bengaluru North,,Bengaluru,Karnataka,,
No.  136,,Kalasipalyam Shambu Palya,Near Basappa Circle,Bengaluru North,,Bengaluru,Karnataka,,
No. 16/1,9Th Cross,Cubbonpet,,Bengaluru,,,Karnataka,,
No. 91,Pailwan T Annaiappa Main Road,Tigalar Pet,,Bengaluru North,,Bengaluru,Karnataka,,
No. 54 1St Floor,3Rd Cross,Cubbonpet,,Bengaluru North,,Bengaluru,Karnataka,,
No. 28 1St Floor,1St Cross,Cabban Pete Main Road,,Bengaluru,,,Karnataka,,
No.  179/3,S P Road D R Lane,,,Bengaluru North,,Bengaluru,Karnataka,,
No.  38-1,Mysuru Road,Nizamuddin Mohalla,Near Vetornary Hospital,Bengaluru North,,Bengaluru,Karnataka,,
"No. 56,Rahamaj Bi Poor",,Kalasipalyam,Basappa Circle,Bengaluru North,,Bengaluru,Karnataka,,
No. 134,Basappa Circle,Shambhu Palya,,Bengaluru North,,Bengaluru,Karnataka,,
"No. 6/1 1St Floor,",S.P Road Crossd.M.Lane,Thiglarpet,,Bengaluru North,,Bengaluru,Karnataka,,
No. 7,Durgamma Temple Street,Kalasipalyam,,Bengaluru North,,Bengaluru,Karnataka,,
No. 27,9Th Cross 4Th Main Road,S R Nagar,,Bengaluru,,,Karnataka,,
42,Cubbon Pet Main Road,Cubbon Pet,,Bengaluru,,,Karnataka,,
No. 153/C,Railway Quarters,Vontikoppal,Railway Colony,Bengaluru,,,Karnataka,,
No. 54,Chowlgally,Chamraj Pet,Corporastion,Bengaluru North,,Bengaluru,Karnataka,,
No.  35 Ward 77,Sampangiramnagar,K S Garden,,Bengaluru North,,Bengaluru,Karnataka,,
No. 65,2Nd Cross,Bhovi Colony,,Bengaluru North,,Bengaluru,Karnataka,,
No. 2,11Th Cross,Cubbonpet,,Bengaluru North,,Bengaluru,Karnataka,,
No. 2/1,Krishna Singh Lane Sita Ramamandira Cross,Sunkalpet Main Road,,Bengaluru,,,Karnataka,,
No. 4,3Rd Cross P V N Lane,Nagarathpet,,Bengaluru,,,Karnataka,,
No. 21,Muniswamappa Lane,,Behind Dharmaraya Swamy Temple,Bengaluru North,,Bengaluru,Karnataka,,
No.  27/15,A V Road,Mariswami Mata Kalasipalyam,,Bengaluru North,,Bengaluru,Karnataka,,
No 5,2Nd Cross R R Lane,Kalasipalyam,,Bengaluru South,,Bengaluru,Karnataka,,
No. 24,Ellappa Garden J C Road,Fire Works Colony,,Bengaluru North,,Bengaluru,Karnataka,,
No. 6,18Th Cross,Cubbonpet,,Bengaluru,,,Karnataka,,
No. 7,Store Street Road,Kalasipalya,Near City Market,Bengaluru South,,Bengaluru,Karnataka,,
44,C Street,Kr Road Fort,Up. Vanivilas Hospital,Bengaluru North,,Bengaluru,Karnataka,,
436,Avenue Road,Kalasi Palya,City Market,Bengaluru North,,Bengaluru,Karnataka,,
No. 23/1,Anjaneya Temple Street,Lingashetty Pet,Near Cubbon Pet Market,Bengaluru South,,Bengaluru,Karnataka,,
No. 2304,G Floor 9Th Main,Rajaji Nagar,D Block 2Nd Stage,Bengaluru North,,Bengaluru,Karnataka,,
No. 21/1,Fornt F Street Dispensory Road,Kalasipalya,,Bengaluru North,,Bengaluru,Karnataka,,
No. 22/1,Sanjeeva Naik Lane,Cubbonpet,Avenue Road Cross,Bengaluru North,,Bengaluru,Karnataka,,
"No.  300/1, Savanda Marcket",Ground Floor,Old Taragpet,Avenue Road Cross,Bengaluru North,,Bengaluru,Karnataka,,
,,,,Bengaluru,,,Karnataka,,
02-Mar,,Nagar Peth Ka Station,Mathan Sab Lane,Bengaluru North,,Bengaluru,Karnataka,,
No. 35,Annamma Temple Road,Jori Cubbon Pete,Cubbon Pete,Bengaluru City,,Bengaluru,Karnataka,,
No. 33 - 3,Mavalli Tank Band Road,Kalasipalya,,Bengaluru North,,Bengaluru,Karnataka,,
No. 85,27Th Cross,Kabban Pete,Anjaneya Gudi Road,Bengaluru North,,Bengaluru,Karnataka,,
,,,20Feb,Bengaluru North,,Bengaluru,Karnataka,,
,,,,Bengaluru North,,Bengaluru,Karnataka,,
22/53,Ramayya Street,Cotton Pet,,Bengaluru North,,Bengaluru,Karnataka,,
No. 22/1,1St Cross Fort Street,Medical College East,,Bengaluru South,,Bengaluru,Karnataka,,
No. 33,Cubbonpet Main Road 10Th Cross Opp Building,Cubbonpet,Ganesha Temple,Bengaluru South,,Bengaluru,Karnataka,,
No. 72 2Nd Floor,Avenue Road,,Up Union Bank Of India,Bengaluru,,,Karnataka,,
No. 9/3,1St Cross Artillary Road,Gowthampur Ulsoor,,Bengaluru South,,Bengaluru,Karnataka,,
,,Cubbon Pet,,Bengaluru,,,Karnataka,,
No. 66,Kumbar Pet Main Road,,,Bengaluru South,,Bengaluru,Karnataka,,
No.  43,Jumma Masjid Road,,Mohammed Sabh Lane,Bengaluru South,,Bengaluru,Karnataka,,
No. 5,P M Lane S P Road Cross,,Biehind Karthik Plaza,Bengaluru South,,Bengaluru,Karnataka,,
No. 41,J M Road Cross,,,Bengaluru Central,,Bengaluru,Karnataka,,
"No.  22,Shiv Shakti, 2Nd Floor",Sanjeevappa Lane,,24Th Cross,Bengaluru North,,Bengaluru,Karnataka,,
"No.  22,Shiv Shakti, 2Nd Floor",Sanjeevappa Lane,,24Th Cross,Bengaluru North,,Bengaluru,Karnataka,,
No. 41,J M Road Cross,,,Bengaluru Central,,Bengaluru,Karnataka,,
No.  6/7,Chinnaswamy Mudilyar Garden,,,Bengaluru,,,Karnataka,,
No. 321,8Th Cross,,,Bengaluru North,,Bengaluru,Karnataka,,
No. 111 3Rd Floor,Sadar Patrappa Road,,Near Dharmaraja Temple,Bengaluru North,,Bengaluru,Karnataka,,
No. 111 3Rd,,,,Bengaluru North,,Bengaluru,Karnataka,,
No. 10,Avenue Road Cross,,,Bengaluru North,,Bengaluru,Karnataka,,
No. 15/1,Dispensary Road,,Opp D P I Office,Bengaluru North,,Bengaluru,Karnataka,,
No-124 V R G Market,O K Road,,,Bengaluru North,,Bengaluru,Karnataka,,
No 21,8Th Cross,,,Bengaluru North,,Bengaluru,Karnataka,,
"No. 7/1,3Rd Floor",G G Lane,,Neeladri Lodge,Bengaluru North,,Bengaluru,Karnataka,,
No 5 (Old No 8),4Th Cross,,,Bengaluru North,,Bengaluru,Karnataka,,
43/1,M T B Road Journalist Colony,,,Bengaluru North,,Bengaluru,Karnataka,,
No.40 1St Floor,Mallikarjunappa Lane,,,Bengaluru North,,Bengaluru,Karnataka,,
No.40 1St Floor,Mallikarjunappa Lane,,,Bengaluru North,,Bengaluru,Karnataka,,
No.40 1St Floor,Mallikarjunappa Lane,,,Bengaluru North,,Bengaluru,Karnataka,,
No.40 1St Floor,Mallikarjunappa Lane,,,Bengaluru North,,Bengaluru,Karnataka,,
No 5,C Block,,,Bengaluru North,,Bengaluru,Karnataka,,
No. 15,D S Lane S P Road,,,Bengaluru North,,Bengaluru,Karnataka,,
No.8/2,Fort C Street,,Near Sharma Transport,Bengaluru North,,Bengaluru,Karnataka,,
No.8/2,Fort C Street,,Near Sharma Transport,Bengaluru North,,Bengaluru,Karnataka,,
No.8/2,Fort C Street,,Near Sharma Transport,Bengaluru North,,Bengaluru,Karnataka,,
"111, 3Rd Floor",S P Road,,Near Sree Dharmarayaswamy Temple,Bengaluru North,,Bengaluru,Karnataka,,
"No.63, 3Rd Floor,",Nagarathpet Main Road,,,Bengaluru North,,Bengaluru,Karnataka,,
No.82,S P Road,,Ngm Plaza,Bengaluru North,,Bengaluru,Karnataka,,
No 1106,O T C Road,,Up Carporetion,Bengaluru North,,Bengaluru,Karnataka,,
"No 7,3Rd Floor",S P Road3Rd Cross,,Opposite C M A Boys Hostel,Bengaluru North,,Bengaluru,Karnataka,,
"No 903/1,2Nd Floor",Ranka Chambers M B T Street,,Ooposite Jain Temple,Bengaluru North,,Bengaluru,Karnataka,,
"No 16 ,",Krishna Singh Lane,,Sitaram Mandir Road,Bengaluru North,,Bengaluru,Karnataka,,
No 17/1 1St Floor,29Th Cross Old Chamrajpet,,Opposite P V Marketing,Bengaluru North,,Bengaluru,Karnataka,,
Raju Nilaya No 10/1,13Th Cross,,Near Basket Ball Ground,Bengaluru North,,Bengaluru,Karnataka,,
Raju Nilaya No 10/1,13Th Cross,,Near Basket Ball Ground,Bengaluru North,,Bengaluru,Karnataka,,
Raju Nilaya No 10/1,13Th Cross,,Near Basket Ball Ground,Bengaluru North,,Bengaluru,Karnataka,,
No 4/1,Crescent Road,,High Grounds,Bengaluru North,,Bengaluru,Karnataka,,
"No.24, 2Nd Floor",B S Market,,,Bengaluru North,,Bengaluru,Karnataka,,
No 20/28,A M Lane,,,Bengaluru North,,Bengaluru,Karnataka,,
No.4/1,Crescent Road,,Opposite Golf Course,Bengaluru North,,Bengaluru,Karnataka,,
Door No-10/1,7Th Cross Kuber Sing Lane,,Lal Bagh Fort Road,Bengaluru North,,Bengaluru,Karnataka,,
No. 19,Nizamuddin Mohalla2Nd Cross Baba Line,,,Bengaluru South,,Bengaluru,Karnataka,,
No.  8/38 New No 8/2,C Street,,,Bengaluru North,,Bengaluru,Karnataka,,
No.  8/38 New No.8/2,C Street,,,Bengaluru North,,Bengaluru,Karnataka,,
,,,,,,,,,
"No. 13/1, 2Nd Floor",A Street,,Near Quba Masjid,Bengaluru North,,Bengaluru,Karnataka,,
No. 241,M T B Road,,Kalasipalya,Bengaluru North,,Bengaluru,Karnataka,,
"No. 96/2,",M M Lanej M Road Cross,,,Bengaluru North,,Bengaluru,Karnataka,,
"No 11 , 3Rd Floor",Chowlu Galli,,Cubbonpet,Bengaluru North,,Bengaluru,Karnataka,,
"No 11 , 3Rd Floor",Chowlu Galli,,Cubbonpet,Bengaluru North,,Bengaluru,Karnataka,,
"No 11 , 3Rd Floor",Chowlu Galli,,Cubbonpet,Bengaluru North,,Bengaluru,Karnataka,,
"No 2 , 3Rd Floor",Chowlu Galli,,Cubbonpet,Bengaluru North,,Bengaluru,Karnataka,,
"No 11 , 3Rd Floor",Chowlu Galli,,Cubbonpet,Bengaluru North,,Bengaluru,Karnataka,,
Flat No. 2   B/5,12Th Main   Padmanabha Nagar,,Kalpatharu Villa,Bengaluru North,,Bengaluru,Karnataka,,
No. 20,Gangamma Temple Street,,,Bengaluru North,,Bengaluru,Karnataka,,
No.  33 Sri Lakshmi Complex 5Th Floor,Appaji Rao Lane C T Street Cross,,,Bengaluru North,,Bengaluru,Karnataka,,
No. 53,A J Garden M T B Road,,Near Charch,Bengaluru North,,Bengaluru,Karnataka,,
No. 37,Rajagopala Garden,,Near Subramanya Temple,Bengaluru North,,Bengaluru,Karnataka,,
No. 06/3,Chowlugalli Sunkalpet Cross,,,Bengaluru North,,Bengaluru,Karnataka,,
No 6/1,Fire Works Colony 1St Cross,,,Bengaluru North,,Bengaluru,Karnataka,,
No 6/1,Fire Works Colony 1St Cross,,,Bengaluru North,,Bengaluru,Karnataka,,
"No, 145",Between 8Th And 9Th Cross,Malleshwaram,,Bengaluru North,,Bengaluru,Karnataka,,
"No, 43/2",15Th Cross Maruthi Extn,Palace Guttahalli,Near Vyalikaval Circle,Bengaluru North,,Bengaluru,Karnataka,,
"No, 43/2",15Th Cross Maruthi Extn,Palace Guttahalli,Near Vyalikaval Circle,Bengaluru North,,Bengaluru,Karnataka,,
"No, 151, Gfs, Abhijith Apartments",7Th Main 11Th Cross,Malleshwaram,,Bengaluru North,,Bengaluru,Karnataka,,
"No. 103, Sangeetha Apartments",B Block 5Th Cross,Malleswaram,,Bengaluru North,,Bengaluru,Karnataka,,
No. 41/2,6Th Temple Street,Malleswaram,,Bengaluru North,,Bengaluru,Karnataka,,
No.U 50,Temple Streetpipeline,Malleshwaram,Pipeline,Bengaluru North,,Bengaluru,Karnataka,,
"No, 32/3,",8Th Cross 7Th Main,Malleshwaram,Kadu Malleshwaram,Bengaluru North,,Bengaluru,Karnataka,,
"No. 15, Sri Lakshmi Nivasa",6Th Main Road,Palace Guttahalli,,Bengaluru North,,Bengaluru,Karnataka,,
,,,,Bengaluru North,,Bengaluru,Karnataka,,
"No, 32/3",8Th Cross 7Th Main,Malleshwaram,Kadu Malleshwaram,Bengaluru North,,Bengaluru,Karnataka,,
No. 231/B,12Th A Cross,Vyalikaval Malleswaram,,Bengaluru North,,Bengaluru,Karnataka,,
"No, 18/3",4Th Main,Malleswaram,Between 7Th And 8Th Cross,Bengaluru North,,Bengaluru,Karnataka,,
,,,,Bengaluru North,,Bengaluru,Karnataka,,
No.  22,D Street Jayaraj Nagar,Ulsoor,,Bengaluru,,,Karnataka,,
No.  69,4Th Cross,Malleswaram,Police Station,Bengaluru,,,Karnataka,,
No. 91/1,East Park Road,Malleshwaram Bengaluru,Opposite Ram Mandir,Bengaluru North,,Bengaluru,Karnataka,,
"No. 35,A-15A,Tripura Nest  Apartment",11Th Cross6Th Main,Malleswaram,Up Shama Rao Vittal Bank,Bengaluru,,,Karnataka,,
Old No 241 New No 62,12Th A Cross,Vyalikaval,,Bengaluru,,,Karnataka,,
Flat No 201,Sanky Road,Sadashivanagar,Near Sadashiva Nagar Bhasyam Circle,Bengaluru,,,Karnataka,,
No.  18/45 Vishal Apartment,11Th Cross 5Th Main,Malleswaram,,Bengaluru,,,Karnataka,,
,,,,Bengaluru North,,Bengaluru,Karnataka,,
113/17,1St Main 16Th Cross,Gayathri Devi Park Exten Vyali Kaval,Choudaiah Memorial Hall,Bengaluru,,,Karnataka,,
"No. Old No 59, New No 40",12Th A Cross,Vyalikaval,,Bengaluru North,,Bengaluru,Karnataka,,
Flat No 1 Mallege Apartment,11Th Cross 4Th Main,Malleshwaram,Near Venu Gopalaswamy Temple,Bengaluru North,,Bengaluru,Karnataka,,
No. 66-5-15,,Ashoka Nagar,,Bengaluru North,,Bengaluru,Karnataka,,
No 10/7,10Th Cross Pipe Line Road,Malleswaram,Near L V Lab,Bengaluru,,,Karnataka,,
No. 12,1St Temple Street 8Th Cross,Malleswaram,,Bengaluru North,,Bengaluru,Karnataka,,
,,Palace Guttahalli,No. 6 1St Main Road,Bengaluru,,,Karnataka,,
No. 40/2,14Th Cross,S P Extension Malleshwaram,,Bengaluru North,,Bengaluru,Karnataka,,
,,Palace Guttahalli,No. 12 3Rd Crossmuniveerappa Block,Bengaluru,,,Karnataka,,
"No. 14, Ground Floor, Vruksha Apartments",16Th Cross,Malleshwaram,Near Adigas,Bengaluru North,,Bengaluru,Karnataka,,
No 2,Dattatreya Temple  Campus Pipe Line,Malleswaram,,Bengaluru,,,Karnataka,,
,,Palace Guttahalli,No. 6 5Th Main Road,Bengaluru,,,Karnataka,,
,,Palace Guttahalli,No. 34 Dodda Byarappa Street,Bengaluru,,,Karnataka,,
"No. 38/2,1St Floor",17Th A Cross Ranganathapuram,Malleshwaram,Near Sidda Ashrama,Bengaluru North,,Bengaluru,Karnataka,,
No. 32,6Th Main Road,Malleshwaram,,Bengaluru North,,Bengaluru,Karnataka,,
No.  7,N.T.I.Staff Qtrs,Palace Guttahalli,,Bengaluru,,,Karnataka,,
,,Muneshwara Block Palace Guttahalli,No. 69 3Rd Main Road,Bengaluru,,,Karnataka,,
No 71,2Nd Main Road,Malleswaram,Opposite To Bilva Hospital,Bengaluru,,,Karnataka,,
"No.  39, Shreeshaila Krupa, 1St Floor",4Th Temple Street15Th Cross,Malleshwaram,,Bengaluru North,,Bengaluru,Karnataka,,
No.  31,4Th Cross D Main Road Muneshwara Block,P G Halli,,Bengaluru North,,Bengaluru,Karnataka,,
,,Palace Guttahalli,No. 44 3Rd Cross 10Th Main Road M V Block,Bengaluru,,,Karnataka,,
No.  8/77,4Th Cross Sudheendra Nagara Kodandarama Pura,Malleshwaram,Dhattatraya Temple,Bengaluru,,,Karnataka,,
No 976,3Rd Cross Lane,Malleswaram,Behind K C General Hospital,Bengaluru,,,Karnataka,,
No.  37,2Nd Cross East Line Road,Malleswaram,,Bengaluru North,,Bengaluru,Karnataka,,
No 9-17,7Th Cross Sudheendra Nagar Swimming Pool Extension,Malleswaram,Opposite To Dattatreya Temple,Bengaluru,,,Karnataka,,
,,,,Bengaluru North,,Bengaluru,Karnataka,,
No.  7,N.T.I.Staff Qtrs,Palace Guttahalli,,Bengaluru,,,Karnataka,,
No. 301 Regalia Apts,6Th Main 15Th Cross,Malleswaram,Near M E S College,Bengaluru North,,Bengaluru,Karnataka,,
No. 142/1-1,Coconut Avenue Road,Malleshwaram,Between 7Th And 8Th Cross,Bengaluru,,,Karnataka,,
No. 22/1,4Th Cross 4Th Main,M.D. Block,,Bengaluru North,,Bengaluru,Karnataka,,
"No. 43/1,1St Floor , Nandini Krupa",3Rd Temple Road,Malleshwaram,Near Corporation School,Bengaluru,,,Karnataka,,
,,,,Bengaluru North,,Bengaluru,Karnataka,,
No.  23/4,11Th Cross S.P. Extn,Sundheendra Nagar,Behind Coffee Day,Bengaluru,,,Karnataka,,
"No.  15, 2Nd Floor",1St Main Road,P G Halli,,Bengaluru North,,Bengaluru,Karnataka,,
No 10,Nagappa Street 3Rd Cross,Palace Guttahalli,Muneshwara Temple Block,Bengaluru,,,Karnataka,,
"No. 87, Sri Nanjundeshwara Building",11Th Cross,Malleshwaram,,Bengaluru,,,Karnataka,,
No. 8,8Th Cross,Malleshwaram,Behind Chandus Hotel,Bengaluru,,,Karnataka,,
No.  36,3Rd Cross,Malleshwaram,Near Hallimane Hotel,Bengaluru North,,Bengaluru,Karnataka,,
"No.  39, 1St Floor, Shreeshaila Krupa",4Th Temple Street,Malleshwaram,,Bengaluru North,,Bengaluru,Karnataka,,
No. 25/14,13Th Main 15Th And 16Th Cross,Malleswaram,,Bengaluru North,,Bengaluru,Karnataka,,
No Kt 39 Leela Nivas Flat No 101,15Th Cross 4Th Main Road,Malleswaram,,Bengaluru,,,Karnataka,,
"No. 301, 3Rd Floor, Soundarya Pride",7Th Cross,Malleswaram,,Bengaluru North,,Bengaluru,Karnataka,,
No. 9,G Main Road 4Th Cross,Malleswaram,,Bengaluru,,,Karnataka,,
"No. 301, 22/19, 3Rd Floor, Soundarya Pride",,,,Bengaluru North,,Bengaluru,Karnataka,,
,,Palace Guttahalli,No. 132 Srs Nilaya 4Th Cross Vasanthappa Block,Bengaluru,,,Karnataka,,
No. 26 Palace Guttahalli,10Th Main Road,A K Colony,Near Vayali Kaval Police Station,Bengaluru,,,Karnataka,,
No 10,Nagappa Street 3Rd Cross,Palace Guttahalli,Muneshwara Temple Block,Bengaluru,,,Karnataka,,
"No. 55, Abhijit Apartments",7Th Main 11Th Cross,Malleswaram,,Bengaluru,,,Karnataka,,
,,7Tn Main 11Th Cross Malleswaram,No. 55,Bengaluru,,,Karnataka,,
,,Vyalikaval,No. 2 1St Main Road,Bengaluru,,,Karnataka,,
No 13/2 Old No 5,2Nd Cross,Munishwara Block Palace Guttahalli,Akshya Complex,Bengaluru North,,Bengaluru,Karnataka,,
No A / 3 Bhavani Nivas,H N Layout 10Th Cross Swimming Pool Extension,Malleswaram,Opposite Ganga Bharathi Service Station,Bengaluru,,,Karnataka,,
No. 59,17Th Cross,Malleshwaram,6Th Main Corner,Bengaluru,,,Karnataka,,
,,6Th Main 15Th Cross Malleswaram,B2 Maitree Apts,Bengaluru,,,Karnataka,,
No. 25/1,16Th Cross,Malleswaram,,Bengaluru,,,Karnataka,,
,,Palace Guttahalli,No. 34 1St Floor 3Rd Main Road,Bengaluru,,,Karnataka,,
No.  317,15 Th Cross,Sampige Road,Kaadu Malleshwara Temple,Bengaluru,,,Karnataka,,
,,4Th Cross Malleshwaram,No. 23 West Link Road,Bengaluru,,,Karnataka,,
,,10 Th Main 13Th Cross Malleswaram,B328 Anandashram Buildings,Bengaluru,,,Karnataka,,
,,Palace Guttahalli,No. 172 A 3Rd Main Road,Bengaluru,,,Karnataka,,
"No. 3594, 35/1",8Th Cross New 2Nd Cross,Gayathri Nagar,Near Kodhanadaramamandira,Bengaluru,,,Karnataka,,
,,13Th Cross Malleswaram,No. 30 Pavan,Bengaluru,,,Karnataka,,
,,V R Puram Palace Guttahalli,No. 29 1St Cross,Bengaluru,,,Karnataka,,
,,Vyalikaval Road Malleswaram,No. 778 2Nd Main,Bengaluru,,,Karnataka,,
,,112 11 Th Cross Malleswaram,No. 308 Haritha Apts,Bengaluru,,,Karnataka,,
No. Flat No.404. Amity Palace,9Th Cross Divanara Palya,,Gokula 1St Stage,Bengaluru,,,Karnataka,,
,,Malleswaram,No. 461 West Park Road,Bengaluru,,,Karnataka,,
,,5Th Cross Malleswaram,No. 11 4Th Floor 5Th Temple Street,Bengaluru,,,Karnataka,,
,,Palace Guttahalli,No. 211 1St Cross V R Puram,Bengaluru,,,Karnataka,,
,,Palace Guttahalli,No. 16 5Th Main Road,Bengaluru,,,Karnataka,,
,,Palace Guttahalli,No. 1 Snehalaya 3Rd Cross Muneshwara Block,Bengaluru,,,Karnataka,,
,,Palace Guttahalli,No. 14 C K Street,Bengaluru,,,Karnataka,,
,,Nagappa Street Palace Guttahalli,No. 111 2Nd Floor 3Rd Cross,Bengaluru,,,Karnataka,,
,,Palace Guttahalli,No. 1 1St Cross Nagappa Street,Bengaluru,,,Karnataka,,
No. 132,Margosa Road,Malleshwaram,Side Of Leela Hospital,Bengaluru North,,Bengaluru,Karnataka,,
,,Muneshwara Block Palace Guttahalli,No. 13 E Main 4Th Cross,Bengaluru,,,Karnataka,,
,,Palace Guttahalli,No. 102 2Nd Cross Kempanna Layout,Bengaluru,,,Karnataka,,
,,7Th Main Mosque Road,No. 54,Bengaluru,,,Karnataka,,
,,Palace Guttahalli,No. 1571St Cross V R Puram,Bengaluru,,,Karnataka,,
,,Palace Guttahalli,No. 46 8Th Block N T I Staff Qtrs,Bengaluru,,,Karnataka,,
,,Palace Guttahalli,No. 409 3Rd Cross V R Puram,Bengaluru,,,Karnataka,,
,,Palace Guttahalli,No. 40 3Rd Cross M D Block,Bengaluru,,,Karnataka,,
No. 2,2Nd Cross,M D Block,,Bengaluru,,,Karnataka,,
,,Malleswaram,No. C9 Chenna Krishnappa Street,Bengaluru,,,Karnataka,,
,,Malleswaram,No. 105Haritha Apts 11Th Cross5Th Main,Bengaluru,,,Karnataka,,
No W-72,3Rd Cross Pipe Line,Malleswaram,,Bengaluru North,,Bengaluru,Karnataka,,
,,M D Block Malleswaram,No. 3 2Nd Cross 1St Floor Out House,Bengaluru,,,Karnataka,,
No. 17/1,7Th Cross Lower Palace Orchid,Sadashiva Nagar,,Bengaluru,,,Karnataka,,
,,V Giri Colony,No. 369 5Th Cross V R Puram,Bengaluru,,,Karnataka,,
,,Malleswaram,No. 1 12Th Cross Swimming Pool Ext,Bengaluru,,,Karnataka,,
,,Palace Guttahalli,,Bengaluru,,,Karnataka,,
No. 4,13Th B Main 18Th Cross,Malleshwaram,,Bengaluru,,,Karnataka,,
"No. 153/2,Flat No.103,Prajwal Mansion",7Th Main9Th Cross,Malleswaram,Near Indira Clinic,Bengaluru North,,Bengaluru,Karnataka,,
No.  10/1 S-2 Panchajanya Apartment,13Th Cross 8Th Main,4Th Cross M T Layout,,Bengaluru,,,Karnataka,,
,,Palace Guttahalli,No. 478 4Th Cross Muneshwara Block,Bengaluru,,,Karnataka,,
No. 3,9Th Cross,Swimming Pool Extn Malleswaram,,Bengaluru,,,Karnataka,,
No. 45/1,,1St Main Road Temple Street 13Th Cross Malleswaram,,Bengaluru North,,Bengaluru,Karnataka,,
No.  U4 / 1,,2Nd Main 4Th Cross Jabbar Block P G Halli,,Bengaluru North,,Bengaluru,Karnataka,,
,,Palace Guttahalli,No. 09 Mask Paralel Road,Bengaluru,,,Karnataka,,
No 75,Pipe Line 3Rd Cross,Srirampuram,,Bengaluru North,,Bengaluru,Karnataka,,
No 37,11Th Cross,Vyalikaval,,Bengaluru North,,Bengaluru,Karnataka,,
"No. 8, 1St Floor",New 1St Temple Road,Malleshwaram,Near Adigas,Bengaluru North,,Bengaluru,Karnataka,,
,,Palace Guttahalli,No. 182 Nagappa Street,Bengaluru,,,Karnataka,,
Mantri Greens No.  D-701,No 1 Sampige Road,Malleshwaram,Next To Mantri Mall,Bengaluru North,,Bengaluru,Karnataka,,
"No. 587/15, Hanuman Giri",7Th Main K N Extn,Yashawantapura,,Bengaluru North,,Bengaluru,Karnataka,,
No.  23,J Block,Malleswaram,,Bengaluru North,,Bengaluru,Karnataka,,
No. 62,4Th Cross,Ashok Nagar,,Bengaluru,,,Karnataka,,
,,Mariyamma Temple Street Vyalikaval,No. 15 A N Block 1St Main Road,Bengaluru,,,Karnataka,,
,,Nagappa Street Palace Guttahalli,No. 11 Muneshwara Block,Bengaluru North,,Bengaluru,Karnataka,,
No. 187,1St Mainroad 1St Cross,Sadashivanagar,Mahalakshmi Temple,Bengaluru North,,Bengaluru,Karnataka,,
"No. 7,Balaji Nilaya",10 Th Crosspipe Line Road,Malleshwaram,,Bengaluru North,,Bengaluru,Karnataka,,
No. 18,11Th Main14Th Cross,Subramanya Nagar,,Bengaluru North,,Bengaluru,Karnataka,,
,,Palace Guttahalli,No. 331 D N R Layout 3Rd Cross,Bengaluru,,,Karnataka,,
,,Palace Gutahalli,No.84 3Rd Cross Nagappa Street,Bengaluru North,,Bengaluru,Karnataka,,
No.  52,9Th Block,Palace Guttahalli,Near P.G.Halli Meternity Home,Bengaluru,,,Karnataka,,
,,Vyalikaval,No. 275 15Th Cross,Bengaluru,,,Karnataka,,
No. 39,13 Th A Cross,Vyalikavalmalleshwaram,,Bengaluru North,,Bengaluru,Karnataka,,
"No. 2, New No 7",S P Avenue Road,Malleshwaram,,Bengaluru North,,Bengaluru,Karnataka,,
,,Palace Guttahalli,No. 34 Dodda Byarappa Street,Bengaluru,,,Karnataka,,
No. 25,Kempanna Street Doddamavalli,,Padmavathi Quality Industies,Bengaluru,,,Karnataka,,
"2,3Rd Floor",Bw Sampige Road And East Park Road,14Th Cross Malleshwaram,,Bengaluru,,,Karnataka,,
No.  154 Soukhya,Coconut Avenue Road,Malleshwaram,,Bengaluru North,,Bengaluru,Karnataka,,
No. 44/1,17Th Cross,Ranganathapura Malleswaram,Near Siddashrama,Bengaluru,,,Karnataka,,
No.  J- 72/1,J Block Pipe Line,Malleswaram,,Bengaluru,,,Karnataka,,
No. U32,1St Floor,Malleshwaram,Pipeline,Bengaluru North,,Bengaluru,Karnataka,,
No. 67/2,,Malleshwaram,4Th Cross Link Road,Bengaluru North,,Bengaluru,Karnataka,,
,,,,Bengaluru North,,Bengaluru,Karnataka,,
,,,,Bengaluru North,,Bengaluru,Karnataka,,
No 1,3Rd Temple Street 13Th Cross,Siddanthi Block Malleshwaram,,Bengaluru North,,Bengaluru,Karnataka,,
,,,,Bengaluru North,,Bengaluru,Karnataka,,
No.  U -48,1St Cross M V Block,P G Halli,,Bengaluru North,,Bengaluru,Karnataka,,
No. 12,4Th Cross 4Th Main,M D Block Malleshwaram,Near K C G Hospital,Bengaluru North,,Bengaluru,Karnataka,,
,,,,Bengaluru North,,Bengaluru,Karnataka,,
,,,No. 116,Bengaluru,,,Karnataka,,
,,J C Nagar,No. 3214 D G Q A Residential Complex,Bengaluru,,,Karnataka,,
,,J C Nagar,No. 3214 D G Q Residential Complex,Bengaluru,,,Karnataka,,
No.  V-44,,Pipe Linemalleswaram,,Bengaluru North,,Bengaluru,Karnataka,,
,,Palace Guttahalli,No. 2 1St Main Road,Bengaluru,,,Karnataka,,
,,Malleswaram,No. 1052Nd Main Road C Cross Muneshwara Block,Bengaluru,,,Karnataka,,
,,Palace Guttahalli,No. 1571St Cross V R Puram,Bengaluru,,,Karnataka,,
,,Palace Guttahalli,No. 312 A Main Road,Bengaluru,,,Karnataka,,
,,Hebbal Mill Ganganagar,No. 9 1St Main Road,Bengaluru,,,Karnataka,,
"No. 12, Corporation School Inside.",11Th Cross.,Malleswaram,,Bengaluru,,,Karnataka,,
,,Palace Guttahalli,No. 24 1St Cross Main,Bengaluru,,,Karnataka,,
,,7Th Main Mosque Road,No. 54,Bengaluru,,,Karnataka,,
,,Malleswaram,No. 5Th Cross Jabbar Block,Bengaluru,,,Karnataka,,
,,Nagappa Street Palace Guttahalli,No. 4U 1St Cross 2Nd Floor,Bengaluru,,,Karnataka,,
,,Palace Guttahalli,No. 134 8Th Cross Jabbar Block,Bengaluru,,,Karnataka,,
,,Palace Guttahalli,,Bengaluru,,,Karnataka,,
"No. D2, Kailash Apts",8Th Main 11Th Cross,Malleshwaram,,Bengaluru,,,Karnataka,,
No. 54,12Th A Cross,,,Bengaluru North,,Bengaluru,Karnataka,,
"No.  45-S2, Chiliume Apartments",West Park Road,,Near M L A School,Bengaluru North,,Bengaluru,Karnataka,,
No 496,2Nd Cross 3Rd Block,,3Rd Stage 8Th Main,Bengaluru North,,Bengaluru,Karnataka,,
,,,,Bengaluru North,,Bengaluru,Karnataka,,
,,,,Bengaluru North,,Bengaluru,Karnataka,,
"No.102 ""Geethanjali""",1572 8Th Main 8Th Cross,,Opposite Sbm Pbb,Bengaluru North,,Bengaluru,Karnataka,,
No 118,,,,Bengaluru North,,Bengaluru,Karnataka,,
No 1-5,13Th Cross,,,Bengaluru North,,Bengaluru,Karnataka,,
Old No 19 New No 46,2Nd Cross,,,Bengaluru North,,Bengaluru,Karnataka,,
No 39,8Th Cross,,,Bengaluru North,,Bengaluru,Karnataka,,
No 25,1St Cross,,,Bengaluru North,,Bengaluru,Karnataka,,
"208, Sri Ranga Apartments",30 1St Temple Street,,Near Canara Bank Kodandaramapuram Branch,Bengaluru North,,Bengaluru,Karnataka,,
"208, Sri Ranga Apartments",30 Temple Street,,Near Canara Bank Kodandaramapuram Branch,Bengaluru North,,Bengaluru,Karnataka,,
"63, Trinetra Apartments",2Nd Temple Road 15Th Cross Road,,Up Kadumalleshwara Temple,Bengaluru North,,Bengaluru,Karnataka,,
No.10,13Th Cross,,Near Vinayaka Circle,Bengaluru North,,Bengaluru,Karnataka,,
No 156,1St Main 2Nd Cross,Manjunath Nagar,West Of Chord Road,Bengaluru North,,Bengaluru,Karnataka,,
No.703,18Th Main Road 1St Block 3Rd Stage,Basaveshwara Nagar,Near Manjunath Temple,Bengaluru North,,Bengaluru,Karnataka,,
No.410,12Th Main Road 1St Block 3Rd Stage,Manjunatha Nagar,,Bengaluru North,,Bengaluru,Karnataka,,
No.243,5Th Main Road 1St Stage 1St Phase,Manjunatha Nagar,Near Modi Hospital,Bengaluru North,,Bengaluru,Karnataka,,
No. 16,4Th Main 1St Cross,Shankaranagar,,Bengaluru North,,Bengaluru,Karnataka,,
No 92,,Manjunath Nagar,Near West Of Chord Road,Bengaluru North,,Bengaluru,Karnataka,,
No. 1975,8Th Main Road 2Nd Stage E Block,Rajaji Nagar,,Bengaluru North,,Bengaluru,Karnataka,,
No 2073,8 Th Main E Block,2 Nd Stage Rajajinagar,,Bengaluru,,,Karnataka,,
No 24,8Th Main Road,Manjunath Nagar,Pushpaanjali Theater,Bengaluru,,,Karnataka,,
No. 423/70,2Nd Floor 10Th G Main Road,6Th Block Circle Rajajinagar,,Bengaluru North,,Bengaluru,Karnataka,,
No 110,70 Th Cross 5 Th Block,Rajaji Nagar,Opp V I P School,Bengaluru,,,Karnataka,,
No. 29,2Nd Main  1St Phase W.O.C.Road,Manjunath Nagar,Navarang Theater,Bengaluru,,,Karnataka,,
No. 856/A,14Th Cross,Rajaji Nagar,Near Modi Hospital,Bengaluru North,,Bengaluru,Karnataka,,
No.  70 / Y,14Th Main Road,3Rd Block,,Bengaluru North,,Bengaluru,Karnataka,,
No 1395/A,2Nd Stage D Block,Rajajinagar,,Bengaluru,,,Karnataka,,
No. 781,12Th Cross Road Rajajinagar,Indiranagara,,Bengaluru,,,Karnataka,,
No. 119/34,14Th A Cross,Rajajinagar,Near Ttd Temple,Bengaluru,,,Karnataka,,
No. 726,19Th Main 1St Block 3Rd Stage,Manjunathanagar Rajajinagar,,Bengaluru,,,Karnataka,,
No.  39,1 St Main Road Shiva Nagar,Rajaji Nagar,,Bengaluru,,,Karnataka,,
No.  242,6Th Cross Indiranagar Slum,Rajajinagar,,Bengaluru,,,Karnataka,,
No. 322/B,1St Cross 2Nd Phese,Manjunathanagar Thimmaiah Road,,Bengaluru North,,Bengaluru,Karnataka,,
No. 81,8Th Cross,Rajajinagar,,Bengaluru,,,Karnataka,,
No.1059/C,18Th B Main Road 5Th Block,,Behind N P School,Bengaluru,,,Karnataka,,
,,,,Bengaluru,,,Karnataka,,
No. 192,3Rd Main Road,1St Phase 2Nd Stage Manjunathanagar,W O C Road,Bengaluru North,,Bengaluru,Karnataka,,
172 Grey Stone,5Th Main 2Nd Stage 2Nd Phase,Mahalakshmi Layout,Near Nandini Theatre,Bengaluru,,,Karnataka,,
"No. 153,",2Nd Cross 2Nd Block,Juganahalli Rajajinagar,Near Venkateshwara Sweets,Bengaluru,,,Karnataka,,
No. 234,8Th C Main Road 3Rd Cross,Manjunathanagar,,Bengaluru,,,Karnataka,,
No. 278,2Nd Main Road 4Th Cross Shivanagar,Rajajinagar,,Bengaluru North,,Bengaluru,Karnataka,,
No.  321,4 Th Main 6 Th Phase 1 St Stage Industrial Town,Rajajinagar,Near Girias Show Room W O C Road,Bengaluru,,,Karnataka,,
No.  36/A,6Th Main Road,Rajajinagar,Sriramamandira,Bengaluru,,,Karnataka,,
No. 19 A,7Th Main Road42Nd Cross4Th Block,Rajaji Nagar,,Bengaluru North,,Bengaluru,Karnataka,,
"No. 456/45,Keshava Nilaya",9Th Main Road2Nd Block,Rajajinagar,Near L F Dispensary,Bengaluru,,,Karnataka,,
No. 7,3Rd Stage 2 Nd Block 1St Main,Basaveshwaranagar,,Bengaluru North,,Bengaluru,Karnataka,,
No. 77,4Th Main 1St Phase Wcr,Manjunatha Nagar,,Bengaluru,,,Karnataka,,
No. 178/A 1St Floor,1St Main 1St Phase,Manjunath Nagar,,Bengaluru North,,Bengaluru,Karnataka,,
No. 13/1,2Nd B Main Road,Rajajinagar. Juganahalli.,,Bengaluru,,,Karnataka,,
No.03,8Th Main 8Th Cross,Shivanagar,Near Doddamma Devi Temple,Bengaluru North,,Bengaluru,Karnataka,,
No. 22,13Th Cross Pipe Line Cholur Palya,Vijayanagar,,Bengaluru North,,Bengaluru,Karnataka,,
No. 11,34Th B Cross 2Nd Block,Juganahalli. Rajaji Nagar,,Bengaluru,,,Karnataka,,
No. 73/2,2Nd Cross 20Th B Main 1St R Block,Rajaji Nagar,,Bengaluru North,,Bengaluru,Karnataka,,
589,10Th Crossindiranagar Slum,Rajajinagar Nagar,,Bengaluru,,,Karnataka,,
No. 536,47Th Main Road 4Th Block,Rajaji Nagar,Near Macidhi,Bengaluru,,,Karnataka,,
No. 60/21,7Th Main Road51St Cross,Rajajinagar,Behind Sai Baba Temple,Bengaluru,,,Karnataka,,
No.  239,27 Th Cross 2 Nd Block,Rajaji Nagar,,Bengaluru,,,Karnataka,,
No 82 C 2,12Th Main Road,Shivanagar,,Bengaluru,,,Karnataka,,
No 82/12-2,2Nd Cross 1St R Block,Rajajinagar,,Bengaluru,,,Karnataka,,
No. 217,1St Main Road,Prakash Nagar,,Bengaluru,,,Karnataka,,
No 126,1St Main Road 1St Stage 3Rd Phase,Manjunatha Nagar,,Bengaluru,,,Karnataka,,
No 450,8Th Cross 3Rd Main  2Nd Phase 1St Stage,Manjunathanagara,,Bengaluru North,,Bengaluru,Karnataka,,
No. 4159,9Th Cross,Subramanya Nagar,,Bengaluru North,,Bengaluru,Karnataka,,
No. 477/7,38Th Cross 2Nd Block,Rajajinagar,,Bengaluru,,,Karnataka,,
No 809,14Th Main 3Rd Block,Rajajinagr,,Bengaluru,,,Karnataka,,
No. 10-1/12 S F 2 Sunrise Apartment,71A Cross 18Th  B Main 5Th Block,Rajajinagar,,Bengaluru North,,Bengaluru,Karnataka,,
No. 2443,12Th Main E Block,2Nd Stage Rajajinagar,,Bengaluru North,,Bengaluru,Karnataka,,
No. 415,20Th Main W.O.C Road,Rajajinagar,1St Block Up. Tata Motors,Bengaluru North,,Bengaluru,Karnataka,,
No. 13,6Th Cross 1St Stage 2Nd Phase,Manjunath Nagar Rajajinagara,,Bengaluru North,,Bengaluru,Karnataka,,
No. 119,,12Th B Main Road 6Th Block Rajajinagar,,Bengaluru North,,Bengaluru,Karnataka,,
No. 328,8Th Main8Th Cross,Govindraj Nagar,Near Florence High School,Bengaluru,,,Karnataka,,
No 129,20Th B Main,Rajajinagar,Near Iskon,Bengaluru,,,Karnataka,,
No. 171,13Th Main Road 3Rd Block,Rajajinagar,,Bengaluru North,,Bengaluru,Karnataka,,
No. 403,Sarang Apartment Shivanagar,Rajajinagar,W O C Road,Bengaluru North,,Bengaluru,Karnataka,,
,,2Nd Main Shivanagar Rajajinagar,House No A 2,Bengaluru,,,Karnataka,,
No.  S-1824,4 Th Cross 2 Nd Stage D Block,Rajajinagar,Behind Sri Sai Womens College,Bengaluru North,,Bengaluru,Karnataka,,
No. 24 - 4,4Th Cross,Rajajinagar,,Bengaluru,,,Karnataka,,
No. 117,5Th Cross 2Nd Phase 3Rd Main,Manjunatha Nagar,,Bengaluru,,,Karnataka,,
No. 935,17Th Main  3Rd Block,Rajajinagar,Near Esi Hospital,Bengaluru,,,Karnataka,,
No. 989,3Rd Block 54Th Cross,Rajajinagar,Behind Ram Mandir,Bengaluru,,,Karnataka,,
No.  1339/56,,Rajajinagar,E Block 5Th Main,Bengaluru North,,Bengaluru,Karnataka,,
No. 989,54Th Cross 3Rd Block,Rajajinagar,Behind Ram Mandir,Bengaluru,,,Karnataka,,
No 173,14Th Cross,Rajajinagar,,Bengaluru,,,Karnataka,,
No.  801/A,62Nd Cross,5Th Block Rajajinagar,,Bengaluru,,,Karnataka,,
No.  133,4Th Cross 2Nd Phase 40 Feet Road,Manjunathanagar,,Bengaluru,,,Karnataka,,
No.  154K,19Th A Main 14Th Cross 1St Block,Rajajinagar,,Bengaluru,,,Karnataka,,
No. 192/A,2Nd Main 4Th Block,Rajajinagar,,Bengaluru,,,Karnataka,,
No.  521,63 Rd Cross 11 Th Main Road 5 Th Block,Rajajinagar,,Bengaluru,,,Karnataka,,
No.  538,10Th Cross West Of Chord Road Indiranagara,Rajaji Nagara,,Bengaluru,,,Karnataka,,
No.  241,1St Main Road 1St Stage 3Rd Phase,Rajajinagar,West Of Chord Road,Bengaluru,,,Karnataka,,
No.  521,63 Rd Cross 11 Th Main Road 5 Th Block,Rajajinagar,,Bengaluru,,,Karnataka,,
No. 904,1Rd Cross Indiranagar,Rajajinagar,,Bengaluru North,,Bengaluru,Karnataka,,
No.  485,9Th Cross West Of Chord Road,Indiranagar,Near Modi Hospital,Bengaluru,,,Karnataka,,
No. 242,1St A Main 2Nd Cross Shivanagar 3Rd Block,Rajaji Nagar,,Bengaluru North,,Bengaluru,Karnataka,,
,,7Th Main 51St Cross 4Th Block,,Bengaluru,,,Karnataka,,
No.  57 Old No 116,12 Th Main Road,Shiva Nagar,Near Pushpanjali Theatre,Bengaluru,,,Karnataka,,
No. 408,6Th Main Road 1St Stage 6Th Phase,Rajaji Nagar,,Bengaluru North,,Bengaluru,Karnataka,,
17 1St Floor,11Th Main,Manjunathanagara,,Bengaluru,,,Karnataka,,
No. 250,3Rd Stage W O C Road,Manjunatha Nagara,Nadgir Polytechnic Near,Bengaluru,,,Karnataka,,
No.  307/B,5Th Phase 8Th Cross 1St Stage W O C Road,Rajaji Nagar,,Bengaluru North,,Bengaluru,Karnataka,,
No 201,29Th Cross 2Nd Block,,Near Basaveswara College,Rajajinagar,,Bengaluru,Karnataka,,
No. 6135/A,3Rd Cross 6Th Block,Rajajinagar,,Bengaluru,,,Karnataka,,
No.  168,11Th Main Road,Manjunathanagar,Near Rasana School,Bengaluru,,,Karnataka,,
No. 206/B,53 Rd Cross 4 Th Block,Rajajinagar,,Bengaluru North,,Bengaluru,Karnataka,,
No. 594,1St Main Road 2Nd Block,Rajajinagar,,Bengaluru,,,Karnataka,,
No. 35/,19Th D Main1St Block,Rajajinagara,Sagar Hotel,Bengaluru North,,Bengaluru,Karnataka,,
No. 1820/19,4Th Cross. B Block,Rajajinagar 2Nd Stage,Bhd Sai Mahila College,Bengaluru,,,Karnataka,,
No. 2375/C,13Th Main A Block,2Nd Stage Rajajinagar,,Bengaluru,,,Karnataka,,
No. 838,13Th Cross,Indira Nagara,,Bengaluru,,,Karnataka,,
No.  106/1,5Th Main 8Th Cross 3Rd Stage,Rajajinagar,Near Indian School,Bengaluru,,,Karnataka,,
No. 97,2Nd Main Road,Shivanagar. Rajaji Nagar,,Bengaluru North,,Bengaluru,Karnataka,,
No.  183,12Th Main 3Rd Stage West Of Chord Road,Basaveshwar Nagar,Near Indian High School,Bengaluru,,,Karnataka,,
No. 4/5,8Th Cross 1St N Block,Rajajinagar,,Bengaluru North,,Bengaluru,Karnataka,,
No. 109/2,3Rd Main,Rajajinagar,,Bengaluru,,,Karnataka,,
No. 114,3Rd Main,Rajajinagar,,Bengaluru,,,Karnataka,,
No. 81,5Th Main Road 8Th Cross  3Rd Stage,Manjunatha Nagara,,Bengaluru,,,Karnataka,,
"No.  2933, Suprasad Nilaya",1St Cross D Block M K K Road 2Nd Stage,Rajajinagar,,Bengaluru,,,Karnataka,,
No. 209,40Feet Road,Manjunath Nagar,Near Muneshwara Temple,Bengaluru,,,Karnataka,,
408,6Th Main 6Th Phase 1St Stage W C R,Basaveshwara Nagar,,Bengaluru North,,Bengaluru,Karnataka,,
No. 2879,14Th Main E Block,2Nd Stage Rajajinagar,,Bengaluru,,,Karnataka,,
No. 8/86,3Rd Cross 6Th Block,,,Rajajinagar,,Bengaluru,Karnataka,,
No. 41,6Th Cross 4Th Block,Rajajinagar,Near K B Temple,Bengaluru,,,Karnataka,,
No. 113,2Nd Main Road,Industriyal Townrajajai Nagar,,Bengaluru,,,Karnataka,,
No. 738/1,58Th Cross 4Th Block,Rajajinagar,,Bengaluru,,,Karnataka,,
,,,K B Temple,Bengaluru,,,Karnataka,,
No. 88,3Rd Cross,Indira Nagar,Near Modi Hospital.,Bengaluru,,,Karnataka,,
No. 81/91,12Th C Main,Shiva Nagar Rajajinagar,,Bengaluru,,,Karnataka,,
44 1St Floor,8Th B Main Road 2Nd Block 3Rd Stage,Manjunatha Nagar,,Bengaluru,,,Karnataka,,
25/29,2Ne Cross Shivanagar,Rajajinagar,,Bengaluru North,,Bengaluru,Karnataka,,
"No. 1029,2Nd Floor",4Th Block59Th Cross,Rajajinagara,Next Brahmana Bank,Bengaluru North,,Bengaluru,Karnataka,,
,,Rajaji Nagar,No. 7253 1St A Cross 6Th Block,Bengaluru North,,Bengaluru,Karnataka,,
No. 838,3Rd Main Road E Block,Rajajinagar,,Bengaluru North,,Bengaluru,Karnataka,,
No. 23,11Th Main Road,Shivanagara,,Bengaluru North,,Bengaluru,Karnataka,,
No. 817,61St Cross,Rajajinagar,,Bengaluru,,,Karnataka,,
No. 146,15Th Cross 1St Block,Rajajinagar,,Bengaluru North,,Bengaluru,Karnataka,,
Old No 295 New No 6/1,66Th Cross,Rajajinagar 5Th Block,Near Muruga Temple,Bengaluru,,,Karnataka,,
"986,1St Floor",4Th Main Road D Block 2Nd Stage,Rajajinagar,Near Citizen Cooperative Bank,Bengaluru North,,Bengaluru,Karnataka,,
298,4Th C Main 2Nd Block,Basaveshwar Nagar,,Bengaluru,,,Karnataka,,
No. 4,33Rd Cross 2Nd Block,Yoga Hall,,Bengaluru,,,Karnataka,,
No. 381,61Th Cross10Th Main Road,5Th Blockbhuvaneshwari Nagar Rajaji,Gavi Mutt,Bengaluru North,,Bengaluru,Karnataka,,
No. 738/1,58Th Cross 4Th Block,Rajajinagar,,Bengaluru,,,Karnataka,,
,,Rajajinagar,,Bengaluru,,,Karnataka,,
No. C11,Police Qutress,Rajaji Nagar,,Bengaluru,,,Karnataka,,
No. 33/A,20Th A Main Road,Rajajinagar,,Bengaluru,,,Karnataka,,
"No.  371, Ave Maria",1St Stage 2Nd Phase West Of Chord Road,Manjunatha Nagar,,Bengaluru North,,Bengaluru,Karnataka,,
No 185-B,56Th Cross 6Th Main 4Th Block,Rajajinagar,Near Ram Mandir,Bengaluru,,,Karnataka,,
136,4Th Cross 1St N Block,Rajajinagar,,Bengaluru North,,Bengaluru,Karnataka,,
No.  C 97,1 St Main Road 1 St Cross Robertson Block,Ramachandra Puram,,Bengaluru North,,Bengaluru,Karnataka,,
No. 98 B,23Rd Cross 2Nd Block,Rajajinagar,,Bengaluru,,,Karnataka,,
No. 8/51,12Th A Cross  Estat 6Th Block,Rajajinagar,,Bengaluru,,,Karnataka,,
No. 437,20Th Main 1St Block,Rajajinagar,Metro Station Service Road,Bengaluru North,,Bengaluru,Karnataka,,
No. 387/A,10Th Cross  1St Phase 3Rd Stage,Manjunathanagar,,Bengaluru,,,Karnataka,,
27,3Rd Cross K B Temple Road,6Th Block Rajajinagar,,Bengaluru,,,Karnataka,,
No. 817,1St Cross 5Th Block,Rajaji Nagar,,Bengaluru,,,Karnataka,,
No. 5/1,5Th Cross 3Rd Main Road,Rajajinagar,Near St. Anns School,Bengaluru,,,Karnataka,,
No. 358/A,6Th Main 3Rd Phase,Manjunath Nagar,Beside Pushpanjali Theatre,Bengaluru,,,Karnataka,,
No. 251/G,3Rd Stage 1St Block,Manjunathanagara,Near Modi Hospital,Bengaluru,,,Karnataka,,
15-Jan,13Th Cross 1St K Block,Rajajinagar,,Bengaluru,,,Karnataka,,
,,Rajajinagar,Near Indian Bank,Bengaluru North,,Bengaluru,Karnataka,,
No 62/70,Dr.Rajkumar Road,Rajajinagar,,Bengaluru,,,Karnataka,,
No. 169/A,11Th Main 3Rd Phase Manjunath Nagar,Rajajinagar,Near Rasna English Svhool,Bengaluru,,,Karnataka,,
No. 2678/A,11Th Main Road,D Block 2Nd Stage Rajajinagar,,Bengaluru North,,Bengaluru,Karnataka,,
No. 3288,5Th Cross C Block,Gayathri Nagar 2Nd Stage Rajaji,,Bengaluru,,,Karnataka,,
6 And,51 St Cross16 Th Main,Rajajinagar 3Rd Block,,Bengaluru,,,Karnataka,,
No.  21,2Nd Main 1St Stage 1St Phase,Manjunatha Nagar,,Bengaluru,,,Karnataka,,
,K B Temple Road,,,Bengaluru,,,Karnataka,,
No. 110,6Th Main 7Th Cross Industrial Town,Mahaganapathy Nagar,,Bengaluru,,,Karnataka,,
No. 2003,7Th Main D Block,2Nd Stage Rajaji Nagar,,Bengaluru North,,Bengaluru,Karnataka,,
"No. 8Th Main,D Block",,2Nd Stage Rajaji Nagar,,Bengaluru,,,Karnataka,,
No. 2805/12-1,1St Cross D Block,2Nd Stage Rajajinagar,Near Durga Medical Store,Bengaluru,,,Karnataka,,
No. 927 34/1,8Th Main Road,Prakash Nagar,,Bengaluru,,,Karnataka,,
No. 8/3,3Rd Cross,4Th Block Rajajinagar,,Bengaluru,,,Karnataka,,
No. 61,2Nd Cross 4Th Main,Agrahara Dasarahalli,M K Compound,Bengaluru,,,Karnataka,,
"No. 20B, New M I G",2Nd Stage 6Th Main,K H B Colony Basaveshwaranagar,,Bengaluru,,,Karnataka,,
No. 912,2Nd Cross 6Th Block,Rajaji Nagar,,Bengaluru,,,Karnataka,,
No. 1418/A,5Th Main Road,D Block 2Nd Stage Rajajinagar,,Bengaluru North,,Bengaluru,Karnataka,,
No. 1584,B Block,Sahakaranagar,,Bengaluru,,,Karnataka,,
No. 3260,4Th Cross C Block 2Nd Stage,Gayathri Nagar,Near Bus Stand,Bengaluru,,,Karnataka,,
No. 222,53Rd B Cross17Th D Main3Rd Block,Rajajinagar,,Bengaluru North,,Bengaluru,Karnataka,,
No. 208,4Th Main 2Nd Phase,Manjunatha Nagar,,Bengaluru,,,Karnataka,,
No. 36,Chamundeshwari Nagar 5 Th Block 6 Th Cross,Rajaji Nagar,Near Star Bajar,Bengaluru North,,Bengaluru,Karnataka,,
,,Ramachandrapuram,Venkateshwara Factory,Bengaluru,,,Karnataka,,
"No. 2,",2Nd Main Road72Nd Cross5Th Block,Rajajinagar,,Bengaluru North,,Bengaluru,Karnataka,,
"139/9,",8Th Main8Th Crossshivanagar,Rajajinagar,,Bengaluru North,,Bengaluru,Karnataka,,
No.  2807 Amruthavarsha,12Th Main D Block 2Nd Stage,Rajajinagar,Maryappana Palya,Bengaluru North,,Bengaluru,Karnataka,,
No. 1205,18Th A Main5Th Block,Rajajinagar,,Bengaluru North,,Bengaluru,Karnataka,,
No. 24/7,5Th Mainshivanagar,Rajajinagar,,Bengaluru North,,Bengaluru,Karnataka,,
No. 246/A,1St A Mainshivanagar,Rajajinagar,,Bengaluru North,,Bengaluru,Karnataka,,
No. 933,2Nd Mainroad 4Th Block,Rajajinagar,,Bengaluru,,,Karnataka,,
No. 1277,6Th Main A Block,Rajajinagar 2Nd Stagesubramanya Nagar,,Bengaluru North,,Bengaluru,Karnataka,,
No. 713,2Nd Main D Block,2Nd Stage Rajajinagar,Near Dcb Bank,Bengaluru North,,Bengaluru,Karnataka,,
No. 1369,5Th Main,E Block 2Nd Stage Rajajinagar,,Bengaluru North,,Bengaluru,Karnataka,,
No. 3158,14Th Cross,Gayatrinagar,,Bengaluru,,,Karnataka,,
"No. 18/1,",8Th B Main Road3Rd Stage1St Block,Manunatha Nagar,,Bengaluru North,,Bengaluru,Karnataka,,
No. 128,7Th Main Road 1St Stage 6Th Phase,Maha Ganapathy Nagar Rajaji,Ambedkar Stadium,Bengaluru North,,Bengaluru,Karnataka,,
67/B,30Th Cross 2Nd Block,Rajajinagar,Behind R T O,Bengaluru,,,Karnataka,,
No.  458,5Th Main 10Th Cross Mahaganapathi Nagara,Rajajinagar,,Bengaluru North,,Bengaluru,Karnataka,,
No. 1367,9Th Hand,Vijaynagar,,Bengaluru,,,Karnataka,,
No. 56,9Th Main Road 1St Block 2Nd Stage,Manjunath Nagar,,Bengaluru,,,Karnataka,,
No. 3985,2Nd A Crossb Block,Rajajinagar 2Nd Block,Subramanya Nagar,Bengaluru,,,Karnataka,,
No. 235,7Th C Main Road 3Rd Stage 2Nd Block,Saniguruvana Halli,,Bengaluru,,,Karnataka,,
No. 696,2Nd Main Road,Rajajinagar D Block Gayathri Nagar 2Nd Stage,Near Navarang Theater,Bengaluru North,,Bengaluru,Karnataka,,
No. 228,13Th Main Tank Band Road,Subramanya Nagar,,Bengaluru North,,Bengaluru,Karnataka,,
No. 2691,11Th Main Road,D Block 2Nd Stage Rajajinagar,,Bengaluru North,,Bengaluru,Karnataka,,
107/A,46Th Cross,Rajaji Nagar,,Bengaluru North,,Bengaluru,Karnataka,,
No. 2703,11Th Maind Block,2Nd Stage Rajajinagar,Near Gayathri Park,Bengaluru,,,Karnataka,,
No. 3497/15,6Th A Crossc Block,2Nd Stage Rajajinagar,,Bengaluru,,,Karnataka,,
No. 2830,12Th Main D Block,2Nd Rajaji Nagar,,Bengaluru North,,Bengaluru,Karnataka,,
No. 590,3Rd Main Road,A Block 2Nd Stage Rajajinagar,,Bengaluru North,,Bengaluru,Karnataka,,
No. 536,47Th Main Road 4Th Block,Rajajinagar,Near Maseedi,Bengaluru,,,Karnataka,,
"No.  3130, Highpoint-3",,45 Palaca Road,,Bengaluru North,,Bengaluru,Karnataka,,
"No.  3130, Highpoint-3",,45 Palaca Road,,Bengaluru North,,Bengaluru,Karnataka,,
No 2 A Block,Income Tax Colony,No 2 Infantry Road,,Bengaluru,,,Karnataka,,
No. 5,A Street,Shivaji Nagar,Near Indian Sweets,Bengaluru,,,Karnataka,,
No.  2093 High Point-2,Palace Road,High Grounds,High Point,Bengaluru,,,Karnataka,,
No. 704,Cunningham Crecent Road,Vasantha Nagar,,Bengaluru North,,Bengaluru,Karnataka,,
124,Commercial Street,Shivaji Nagar,Opposite To Police Station,Bengaluru,,,Karnataka,,
No. 29.Prathiksha,Syankey Road Croos,Abshot Layout Syankey Road Cross,Behind Hotel Vindsor Manor,Bengaluru Central,,Bengaluru,Karnataka,,
,Special Subdvn,,P W D High Court,Bengaluru North,,Bengaluru,Karnataka,,
51/2,C T Street 7Th Cross,Vasanth Nagar,,Bengaluru,,,Karnataka,,
126 1St Floor,Sepping Road,Nehru Puram,,Bengaluru,,,Karnataka,,
Flat 1 D Charles Court Apartment,12 Rest House Road,Rest House Road,,Bengaluru,,,Karnataka,,
No. 264,Narayan Pillai Street,Shivaji Nagara,,Bengaluru City,,Bengaluru,Karnataka,,
96/1,3Rd Cross Lavelle Road,,Near St Joseph Indian High School,Bengaluru,,,Karnataka,,
No. 28 Q No,4Th Street,Mackan Road Cross,,Bengaluru,,,Karnataka,,
No. 21 Q No,4Th Street 2Nd Cross,Bharathi Nagar,,Bengaluru,,,Karnataka,,
67/63,16 Th Cross,Lakkasandra,Opp Nimahans,Bengaluru,,,Karnataka,,
No. 58/3,Muneshwara 1St Block  1St Main  2Nd Cross,Mattadahalli Jayamahal R T Nagar Post,,Bengaluru North,,Bengaluru,Karnataka,,
No.  12 1St Floor,B Street,Bharati Nagar,,Bengaluru,,,Karnataka,,
21,U V C E Boys Hostelcity Campus,K R Circle,Near Civil Court,Bengaluru North,,Bengaluru,Karnataka,,
No. Flat No 3 Shiv Darashan Appartment,,Infantry Road,,Bengaluru North,,Bengaluru,Karnataka,,
51/2,C T Street 7Th Cross,Vasanth Nagar,,Bengaluru,,,Karnataka,,
No.  121,Seppings Road,Nehru Puram,,Bengaluru,,,Karnataka,,
No.  35,2Nd Cross B Cooks Road,Thimmaiah Road Cross,,Bengaluru,,,Karnataka,,
No.  26,Lakshman Mudaliar Street,Commerical Street,,Bengaluru,,,Karnataka,,
No.  22,Bharathi Nagar D Street,Shivaji Nagar,,Bengaluru,,,Karnataka,,
No.  56 2Nd Floor,Bowring Hospital Road,Shivaji Nagar,Charchand Manzil,Bengaluru,,,Karnataka,,
No 18,Velu Mudliar Road,Shivajinagar,,Bengaluru,,,Karnataka,,
No.  65,12Th Cross,Vasanth Nagar,,Bengaluru,,,Karnataka,,
No.  65,12Th Cross,Vasanth Nagar,,Bengaluru,,,Karnataka,,
No.  155/2,Narayana Pillai Street,Bharthi Nagar,,Bengaluru,,,Karnataka,,
No.  601 Hoysala Apartment,162 Miller Tank Bund Road,Vasanthnagar,,Bengaluru,,,Karnataka,,
No.  15/30,7Th Cross,Someshwaranagar Tank Garden Jayanagar 1St Block,,Bengaluru,,,Karnataka,,
Room No 2 Gate No 3,Kasturabha Road,Sree Kanteerava Stadium,,Bengaluru North,,Bengaluru,Karnataka,,
No. 17,Brad Shaw Street,Nehrupuram,Near Madini School,Bengaluru Central,,Bengaluru,Karnataka,,
No. 9/1,10Th Cross Vasanthnagar,Shivajinagar,,Bengaluru,,,Karnataka,,
No. 25,S No.  4Th Street Seppings Road,Bharathi Nagar,,Bengaluru,,,Karnataka,,
"5Th Floor,  M S Building",,Dr Ambedkar Veedi K R Circle,,Bengaluru North,,Bengaluru,Karnataka,,
No. 264,S L N Abharan,Narayana Pillai Street,G R Kalyanamantapa,Bengaluru North,,Bengaluru,Karnataka,,
No. 282,,Nehru Puram Bharthi Nagar,Opp.Makka Masjid,Bengaluru North,,Bengaluru,Karnataka,,
No. 780,3Rd Main 5Th Cross,Prakash Nagar,,Bengaluru,,,Karnataka,,
No. 26,V N R Road,Madhava Nagar,,Bengaluru North,,Bengaluru,Karnataka,,
No. 36,Hains Road Cross,Nehru Puram,,Bengaluru,,,Karnataka,,
,,Bharathinagara,No. 154 Thimmaiah Road,Bengaluru,,,Karnataka,,
No.  96,Mackan Road,Bharathi Nagar,Near Coles Park,Bengaluru,,,Karnataka,,
No. 15/1,Seppings Road,Shivaji Nagar,,Bengaluru,,,Karnataka,,
No.  23,Clarks Pet C Street,Kamaraja Road Cross,Dr Venkatraman Street,Bengaluru,,,Karnataka,,
No.  12,L No 2Nd Street,Labbay Masjid Street Shivaji Nagar,,Bengaluru,,,Karnataka,,
No. 169/J,,Railway Qrts New Colony,,Bengaluru,,,Karnataka,,
,,Palace Road,,Bengaluru North,,Bengaluru,Karnataka,,
Flat No 8 2Nd Floor Aishwarya Apts,,,Off Brigade Road,Bengaluru,,,Karnataka,,
No. 13,3Rd Main Road,Vasanth Nagar East,Near Kodava Samaja,Bengaluru,,,Karnataka,,
No.  65,12Th Cross 8Th Main Road,Vasanth Nagar,,Bengaluru,,,Karnataka,,
No.  4,T No 1St Street,Arunachalam Mudalliar Road Shivaji Nagar,,Bengaluru,,,Karnataka,,
No.  7 Kumara Krupa Guest House Qtrs,High Grounds Shivananda Circle,,,Bengaluru,,,Karnataka,,
Karnataka Information Commission M S Building,Dr Ambedkar Vidhi,,,Bengaluru North,,Bengaluru,Karnataka,,
Karnataka Information Commission M S Building,Dr Ambedkar Vidhi,,,Bengaluru North,,Bengaluru,Karnataka,,
No. 13/1 Bradshaw Street,,,Nehru Purambharathi Nagar,Bengaluru North,,Bengaluru,Karnataka,,
,,,,Bengaluru North,,Bengaluru,Karnataka,,
No. 29,,Krishnappa Layout Lingarajapura,,Bengaluru North,,Bengaluru,Karnataka,,
,7 Th Crossold Post Office Road,,Near Chicken Market.,Bengaluru North,,Bengaluru,Karnataka,,
No.  36 K C N Mansion,Yamuna Bai Road,E Block 2Nd Stage Rajajinagar,Behind Hotel Solitaire,Bengaluru North,,Bengaluru,Karnataka,,
No. 11,Cresent Road,E Block 2Nd Stage Rajajinagar,Near Shivananda Circle,Bengaluru North,,Bengaluru,Karnataka,,
No 4,K No 3Rd Street Narayana Pillai Street Cross,E Block 2Nd Stage Rajajinagar,,Bengaluru North,,Bengaluru,Karnataka,,
No 4,K No 3Rd Street Narayana Pillai Street Cross,E Block 2Nd Stage Rajajinagar,,Bengaluru North,,Bengaluru,Karnataka,,
"No. 105, Garden Apartment",Vittal Malaya Road,E Block 2Nd Stage Rajajinagar,Near Ub City,Bengaluru North,,Bengaluru,Karnataka,,
No. 22/1,Millers Tank Bund Road,E Block 2Nd Stage Rajajinagar,Near Jain Hospital,Bengaluru North,,Bengaluru,Karnataka,,
No 79,5Th Main Road 10Th Cross,E Block 2Nd Stage Rajajinagar,,Bengaluru North,,Bengaluru,Karnataka,,
No 79,5Th Main Road 10Th Cross,E Block 2Nd Stage Rajajinagar,,Bengaluru North,,Bengaluru,Karnataka,,
No.  124/41,Narayana Pillai Street,E Block 2Nd Stage Rajajinagar,Opp Old Post Office,Bengaluru North,,Bengaluru,Karnataka,,
124/1,,E Block 2Nd Stage Rajajinagar,,Bengaluru North,,Bengaluru,Karnataka,,
No. 31,Bharthi Nagar B Street,E Block 2Nd Stage Rajajinagar,Nera Poorhouse Hospital,Bengaluru North,,Bengaluru,Karnataka,,
No. 20,2Nd Cross Sulthan Nagar,E Block 2Nd Stage Rajajinagar,Near Vallullah School,Bengaluru North,,Bengaluru,Karnataka,,
No. 204 Sambhavnath Appartment,Jain Temple Street,E Block 2Nd Stage Rajajinagar,,Bengaluru North,,Bengaluru,Karnataka,,
No. 38 / 1,Armstrong Road,E Block 2Nd Stage Rajajinagar,,Bengaluru North,,Bengaluru,Karnataka,,
No 205,451Palace Road,E Block 2Nd Stage Rajajinagar,Near Chalukya Hotel,Bengaluru North,,Bengaluru,Karnataka,,
Sheshadri Road,Maharani Seience College  Hostel Wardan Quarters,E Block 2Nd Stage Rajajinagar,Opp Free Dom Park,Bengaluru North,,Bengaluru,Karnataka,,
Sheshadri Road,Maharani Seience College  Hostel Wardan Quarters,E Block 2Nd Stage Rajajinagar,Opp Free Dom Park,Bengaluru North,,Bengaluru,Karnataka,,
No. 07,2Nd Cross 8Th Main,E Block 2Nd Stage Rajajinagar,Near Mount Carmel College,Bengaluru North,,Bengaluru,Karnataka,,
No. 62/2,11Th A Main Road,E Block 2Nd Stage Rajajinagar,,Bengaluru North,,Bengaluru,Karnataka,,
No 4,R No 2Nd Street,E Block 2Nd Stage Rajajinagar,Behind Om Shakti Temple,Bengaluru North,,Bengaluru,Karnataka,,
No:15,Muthyalamma Temple H Cross,E Block 2Nd Stage Rajajinagar,Near Muthyalamma Temple,Bengaluru North,,Bengaluru,Karnataka,,
"No. 35,5/1",South End Street,E Block 2Nd Stage Rajajinagar,,Bengaluru North,,Bengaluru,Karnataka,,
No:15,Muthyalamma Temple H Cross,E Block 2Nd Stage Rajajinagar,Near Muthyalamma Temple,Bengaluru North,,Bengaluru,Karnataka,,
No 15,Muthyalamma Temple H Cross,E Block 2Nd Stage Rajajinagar,Near Muthyalamma Temple,Bengaluru North,,Bengaluru,Karnataka,,
No.  Embassy Habitat Apartment,6 A Cunningham Road,E Block 2Nd Stage Rajajinagar,Near Mount Carmel College,Bengaluru North,,Bengaluru,Karnataka,,
No.  5,Q No 4Th Street 2Nd Cross,E Block 2Nd Stage Rajajinagar,Thimmaiah Road,Bengaluru North,,Bengaluru,Karnataka,,
No 15,Muthyalamma Temple H Cross,E Block 2Nd Stage Rajajinagar,Near Muthyalamma Temple,Bengaluru North,,Bengaluru,Karnataka,,
No.  1,B Street Mackan Road,E Block 2Nd Stage Rajajinagar,,Bengaluru North,,Bengaluru,Karnataka,,
No.10,S.No 3Rd Street Seppings Road Cross,Vasanth Nagar,Near Om Shakthi Temple,Bengaluru North,,Bengaluru,Karnataka,,
No.10,S.No 3Rd Street Seppings Road Cross,Vasanth Nagar,Near Om Shakthi Temple,Bengaluru North,,Bengaluru,Karnataka,,
No 26/1,Lakshmana Madaliar Street,Vasanth Nagar,Near Shivajinagar,Bengaluru North,,Bengaluru,Karnataka,,
B-03. V M'S Apartment,1231 Infantry Road,Vasanth Nagar,Opp Vijaya Bank,Bengaluru North,,Bengaluru,Karnataka,,
11-Jan,Mamundi Pillai Street,Vasanth Nagar,,Bengaluru North,,Bengaluru,Karnataka,,
"No.  12, Cod Qtrs",Carltan House,Vasanth Nagar,,Bengaluru North,,Bengaluru,Karnataka,,
No. 19,6Th Cross Road 7Th Main Road,Vasanth Nagar,,Bengaluru North,,Bengaluru,Karnataka,,
,,Vasanth Nagar,,Bengaluru North,,Bengaluru,Karnataka,,
No. A-17,R B I Officers Quarters,Vasanth Nagar,Near Mount Carmel College,Bengaluru North,,Bengaluru,Karnataka,,
"B-2, Chandana Apartments",82 Infantry Road,Vasanth Nagar,,Bengaluru North,,Bengaluru,Karnataka,,
No. 06,10Th Street K Kamaraj Road,Vasanth Nagar,,Bengaluru North,,Bengaluru,Karnataka,,
"A-8,",In Come Tax Colony,Vasanth Nagar,No2 Infantry Road,Bengaluru North,,Bengaluru,Karnataka,,
No. 27/8,Cubbon Road Union Steel Cross,Vasanth Nagar,,Bengaluru North,,Bengaluru,Karnataka,,
124/1,Narayana Pillai Street,Vasanth Nagar,Up Post Office,Bengaluru North,,Bengaluru,Karnataka,,
Sheshadri Road,Maharani Seience College  Hostel Wardan Quarters,Vasanth Nagar,Opp Free Dom Park,Bengaluru North,,Bengaluru,Karnataka,,
17-Jun,Muruga Pillai Street,Vasanth Nagar,Opposite To Arunachalam Choultry,Bengaluru North,,Bengaluru,Karnataka,,
,,Vasanth Nagar,,Bengaluru North,,Bengaluru,Karnataka,,
No:4,R No 2Nd Street,Vasanth Nagar,Behind Om Sakthi Temple,Bengaluru North,,Bengaluru,Karnataka,,
No. 15,7Th Cross,Vasanth Nagar,,Bengaluru North,,Bengaluru,Karnataka,,
No. 53(Old32),Yamuna Bai Road 1St Cross,Vasanth Nagar,Near Race Course,Bengaluru North,,Bengaluru,Karnataka,,
"42,Rest House Apartment",14,Vasanth Nagar,,Bengaluru North,,Bengaluru,Karnataka,,
"No. 42,Rest House Apartment",14,Vasanth Nagar,,Bengaluru North,,Bengaluru,Karnataka,,
No 10 Kamal Nivas,Crescent Cross Road,Vasanth Nagar,Srikantiah Layout,Bengaluru North,,Bengaluru,Karnataka,,
No 06,10Th Street,Vasanth Nagar,Kamaraja Road,Bengaluru North,,Bengaluru,Karnataka,,
No 06,10Th Street,Vasanth Nagar,Kamaraja Road,Bengaluru North,,Bengaluru,Karnataka,,
No 13,14Th Main Road,Vasanth Nagar,Manooth Towers,Bengaluru North,,Bengaluru,Karnataka,,
"1/4,Marshal Cariappa Colony",Cubbon Road,Vasanth Nagar,Near Manipal Centre,Bengaluru North,,Bengaluru,Karnataka,,
No 99,Seppings Road,Vasanth Nagar,Near Colse Park,Bengaluru North,,Bengaluru,Karnataka,,
No 99,Seppings Road,Vasanth Nagar,Near Colse Park,Bengaluru North,,Bengaluru,Karnataka,,
2B Ajantha Apartments,24 Lavelle Road,Vasanth Nagar,Near Bangalor Club,Bengaluru North,,Bengaluru,Karnataka,,
No 22,Thimmaiah Road C Cross Street,Vasanth Nagar,Near Memorial Park,Bengaluru North,,Bengaluru,Karnataka,,
2B Ajantha Apartments,24 Lavelle Road,Vasanth Nagar,Near Bangalor Club,Bengaluru North,,Bengaluru,Karnataka,,
No 22,Thimmaiah Road C Cross Street,Vasanth Nagar,Near Memorial Park,Bengaluru North,,Bengaluru,Karnataka,,
2B Ajantha Apartments,24 Lavelle Road,Vasanth Nagar,Near Bengaluru Club,Bengaluru North,,Bengaluru,Karnataka,,
2B Ajantha Apartments,24 Lavelle Road,Vasanth Nagar,Near Bengaluru Club,Bengaluru North,,Bengaluru,Karnataka,,
No. 4,1St Cross Ebrahim Sahib Street,Vasanth Nagar,Behind Lababin Masjid,Bengaluru North,,Bengaluru,Karnataka,,
No. 27,Old Police Lane C Street Mackan Road,Vasanth Nagar,,Bengaluru North,,Bengaluru,Karnataka,,
No. 27,Old Police Lane C Street Mackan Road,Vasanth Nagar,,Bengaluru North,,Bengaluru,Karnataka,,
No. 27,Old Police Lane Mackan Road C Street,Vasanth Nagar,,Bengaluru North,,Bengaluru,Karnataka,,
26/1 1St Cross,E Street Bharathinagar,Vasanth Nagar,Thimmaiah Road,Bengaluru North,,Bengaluru,Karnataka,,
"No.D-15, Kamala Mansion",Queens Road Cross Connaught Road,Vasanth Nagar,Kamala Bai School,Bengaluru North,,Bengaluru,Karnataka,,
No 4/1,Crescent Road,Vasanth Nagar,High Grounds,Bengaluru North,,Bengaluru,Karnataka,,
No 4/1 Crescent Road,,Vasanth Nagar,High Grounds,Bengaluru North,,Bengaluru,Karnataka,,
"No. 1/9, F M C C",Cubbon Road,Vasanth Nagar,Up Manipal Center,Bengaluru North,,Bengaluru,Karnataka,,
No.4/1,Crescent Road,Vasanth Nagar,Opposite Golf Course,Bengaluru North,,Bengaluru,Karnataka,,
No.4/1,Crescent Road,Vasanth Nagar,Opposite Golf Course,Bengaluru North,,Bengaluru,Karnataka,,
"1022, Embassy Habitat",No.59 Palace Road,Vasanth Nagar,Beside Mount Carmel College,Bengaluru North,,Bengaluru,Karnataka,,
"1022, Embassy Habitat",No.59 Palace Road,Vasanth Nagar,Beside Mount Carmel College,Bengaluru North,,Bengaluru,Karnataka,,
No.1022 'Embassy Habitat',No.59 Palace Road,Vasanth Nagar,Beside Mount Carmel College,Bengaluru North,,Bengaluru,Karnataka,,
No. 141,Shivaji Road,Vasanth Nagar,,Bengaluru North,,Bengaluru,Karnataka,,
20,Kumar Cot Layout,Vasanth Nagar,Madhavnagar Near Canara Bank,Bengaluru North,,Bengaluru,Karnataka,,
"No 24, Malhotra Nivas",Vishwanath Rao Road,Vasanth Nagar,Madhav Nagar,Bengaluru North,,Bengaluru,Karnataka,,
"No.3, Annapoorna",Kumara Cot Layout,Vasanth Nagar,Behind Janardhana Hotel,Bengaluru North,,Bengaluru,Karnataka,,
No. 17 2Nd Floor,Matman Lane,Vasanth Nagar,Veerapillai Street Cross,Bengaluru North,,Bengaluru,Karnataka,,
No. 341,2Nd Street Shivan Chatti Garden,Vasanth Nagar,Near Shree Complex,Bengaluru North,,Bengaluru,Karnataka,,
No. 53/54,Palace Road,Vasanth Nagar,Mount Carmel College,Bengaluru North,,Bengaluru,Karnataka,,
No 4/1,Crescent Road,Vasanth Nagar,High Grounds,Bengaluru North,,Bengaluru,Karnataka,,
No.4/1,Crescent Road,Vasanth Nagar,Opposite Golf Course,Bengaluru North,,Bengaluru,Karnataka,,
No.15,7Th Cross,Vasanth Nagar,Near Corporation Market,Bengaluru North,,Bengaluru,Karnataka,,
No. 16,K 5Th Street,Vasanth Nagar,Seppings Road Cross,Bengaluru North,,Bengaluru,Karnataka,,
,,Vasanth Nagar,,Bengaluru North,,Bengaluru,Karnataka,,
No.15,7Th Cross,Vasanth Nagar,Near Corporation Market,Bengaluru North,,Bengaluru,Karnataka,,
"No. 17,2Nd Floor",,Vasanth Nagar,,Bengaluru North,,Bengaluru,Karnataka,,
"247/1, Nawab Manzil",Near Makah Masjid,Vasanth Nagar,Near Makkah Mosque,Bengaluru North,,Bengaluru,Karnataka,,
"No.263, Old No.33",,Vasanth Nagar,Near Makkah Mosque,Bengaluru North,,Bengaluru,Karnataka,,
No 62/1,Chikkathayappa Road,Vasanth Nagar,7Th Cross,Bengaluru North,,Bengaluru,Karnataka,,
No.4,R. No.2Nd Street,Vasanth Nagar,Behind Om Sakthi Temple,Bengaluru North,,Bengaluru,Karnataka,,
No.  11,Seppings Road Cross,Vasanth Nagar,,Bengaluru North,,Bengaluru,Karnataka,,
No.22/1,Miller Tank Bund,Vasanth Nagar,Jain Hospital,Bengaluru North,,Bengaluru,Karnataka,,
No.  18,St Marks Road,Vasanth Nagar,Near Southam And Company,Bengaluru North,,Bengaluru,Karnataka,,
No. 64,1St Floor,Vasanth Nagar,Armstrong Road,Bengaluru North,,Bengaluru,Karnataka,,
No 16,7Th Cross Chikkattayappa Road,Vasanth Nagar,,Bengaluru North,,Bengaluru,Karnataka,,
No. 48,Kasturiba Road,Vasanth Nagar,,Bengaluru North,,Bengaluru,Karnataka,,
"No.10, Cassuriana Street",Thimmaiah Road Cross,Vasanth Nagar,Padmini Agarpathy Factory Road,Bengaluru North,,Bengaluru,Karnataka,,
145,8Th Main Road,Vasanth Nagar,Near Tandoori Nites,Bengaluru North,,Bengaluru,Karnataka,,
No. 49 2Nd Floor Khanijabhavan,Race Course Road,Vasanth Nagar,Behind R C College,Bengaluru North,,Bengaluru,Karnataka,,
No. 95 2Nd Floor,Armstrong Road,Vasanth Nagar,,Bengaluru North,,Bengaluru,Karnataka,,
No 21/1,Thoppa Madaliar Street,Vasanth Nagar,,Bengaluru North,,Bengaluru,Karnataka,,
"No. 29, Mukunda Nilaya",Madhura Garmentes,Vasanth Nagar,Behind Tejus Bekari,Bengaluru North,,Bengaluru,Karnataka,,
No.4/1,Crescent Road,Vasanth Nagar,Opposite Golf Course High Grounds,Bengaluru North,,Bengaluru,Karnataka,,
No 96 Loyola Mandir,Lavelle Road 3Rd Cross,Vasanth Nagar,,Bengaluru North,,Bengaluru,Karnataka,,
No.  82,P M 3Rd Street Mackan Compound,Vasanth Nagar,,Bengaluru North,,Bengaluru,Karnataka,,
44,7Th Main,Vasanth Nagar,,Bengaluru North,,Bengaluru,Karnataka,,
No. 8,Memorial Street,Vasanth Nagar,,Bengaluru North,,Bengaluru,Karnataka,,
No. 66,Makkah Mosque Street,Vasanth Nagar,,Bengaluru North,,Bengaluru,Karnataka,,
Flat No 1203 Embassy Habitat,59 Palace Road Hig Grounds Post,Vasanth Nagar,Next To Mount Carmel College,Bengaluru North,,Bengaluru,Karnataka,,
"No.1103, High Point-1",10Th Floor,Vasanth Nagar,,Bengaluru North,,Bengaluru,Karnataka,,
No 11,P No 3Rd Street  Arms Tong Road,Bharathi Nagar,Baidwadi Masjid,Bengaluru North,,Bengaluru,Karnataka,,
Shanmuga Zahid Street,,Bharathi Nagar,,Chennai,,,Tamil Nadu,,
Perumal Muthali Street,,Bharathi Nagar,Kondithape,Chennai,,,Tamil Nadu,,
,,Bharathi Nagar,19 Kutti Street Seven Wells,Chennai,,,Tamil Nadu,,
Habibullah Road,,Bharathi Nagar,,Chennai,,,Tamil Nadu,,
Nattu Pillaiyar Koil,,Bharathi Nagar,Sowcarpet,Chennai,,,Tamil Nadu,,
Habibulla Road,,Bharathi Nagar,,Chennai,,,Tamil Nadu,,
Saint Xavier Street,,Bharathi Nagar,,Chennai,,,Tamil Nadu,,
Sevenwells,,Bharathi Nagar,,Chennai,,,Tamil Nadu,,
Sevenwells Street,,Bharathi Nagar,,Chennai,,,Tamil Nadu,,
Govindappa Naicken Street,,Bharathi Nagar,Parrys,Chennai,,,Tamil Nadu,,
Nattu Pilliar Koil Street,,Bharathi Nagar,,Chennai,,,Tamil Nadu,,
Parish Venkatachala Iyer Street,,Bharathi Nagar,,Chennai,,,Tamil Nadu,,
Raghunayakulu Street,,Bharathi Nagar,Parktown,Chennai,,,Tamil Nadu,,
,,Bharathi Nagar,,Chennai,,,Tamil Nadu,,
,,,Sevenwells,Chennai,,,Tamil Nadu,,
Ratna Mudali Street,,,Kondithope,Chennai,,,Tamil Nadu,,
Anna Pillai Street,,,Walltax Road,Chennai,,,Tamil Nadu,,
Pattu Rasappa Street,Opposite To Tmms School,,Sevenwells,Chennai,,,Tamil Nadu,,
Adhiyappan Street,,,Sowcarpet,Chennai,,,Tamil Nadu,,
Savarimuthi Street,Mannady,,,Chennai,,,Tamil Nadu,,
Mulla Sahib Lane,,,Sowcarpet,Chennai,,,Tamil Nadu,,
Reddy Raman Street,,Shivajinagar,,Chennai,,,Tamil Nadu,,
Sadayappan Street,,Shivajinagar,Seven Wells,Chennai,,,Tamil Nadu,,
Thirumullai Voyal,Sri Nagar Colony,Shivajinagar,Thiruvallur,Chennai,,,Tamil Nadu,,
Moore Street 4Th Floor,,Shivajinagar,,Chennai,,,Tamil Nadu,,
New Street,,Shivajinagar,Mannady,Chennai,,,Tamil Nadu,,
Scream Street,,Shivajinagar,Kodungaiyur,Chennai,,,Tamil Nadu,,
Police Quarters,,Shivajinagar,,Chennai,,,Tamil Nadu,,
Porchuguese Church Street,,Shivajinagar,Sevenwells,Chennai,,,Tamil Nadu,,
Angappa Naicken Street,,Shivajinagar,,Chennai,,,Tamil Nadu,,
Sadaiyappan Street,,Shivajinagar,,Chennai,,,Tamil Nadu,,
Vadakku Sadarkkarai Salai,,Shivajinagar,Chidambaranar,Chennai,,,Tamil Nadu,,
Spring Heaven Road,,Shivajinagar,,Chennai,,,Tamil Nadu,,
Linghi Chetty Street,,Shivajinagar,,Chennai,,,Tamil Nadu,,
,,Shivajinagar,Sowcarpet,Chennai,,,Tamil Nadu,,
"Reserve Bank Of India, Rajaji Salai",,Shivajinagar,,Chennai,,,Tamil Nadu,,
Kondithop Condal Street,,Shivajinagar,Kondithope,Chennai,,,Tamil Nadu,,
Moore Street,,Shivajinagar,,Chennai,,,Tamil Nadu,,
,,,Kachaleeswarar Agraharam Armenian Street 4Th Floor,Chennai,,,Tamil Nadu,,
Mettu Street,,,Muthialpet,Chennai,,,Tamil Nadu,,
Thambu Chetty Street,,,Mannady,Chennai,,,Tamil Nadu,,
Mint Street,,,,Chennai,,,Tamil Nadu,,
Thambu Chetty Street,,,Mannady,Chennai,,,Tamil Nadu,,
Kondal Street,,Agrahara Dasarahalli,Kondithope,Chennai,,,Tamil Nadu,,
Thiyagaraya Pillai Street,,Agrahara Dasarahalli,,Chennai,,,Tamil Nadu,,
Salai Vinayagar Kovil Street,,Agrahara Dasarahalli,Muthialpet,Chennai,,,Tamil Nadu,,
Chetty Street Languages,,Agrahara Dasarahalli,Harbour,Chennai,,,Tamil Nadu,,
Chetty Street Languages,,Agrahara Dasarahalli,Mannady,Chennai,,,Tamil Nadu,,
,,Agrahara Dasarahalli,Muthialpet,Chennai,,,Tamil Nadu,,
Chetty Street Languages,,Agrahara Dasarahalli,Mannady,Chennai,,,Tamil Nadu,,
Chetty Street Languages,,Agrahara Dasarahalli,,Chennai,,,Tamil Nadu,,
Chetty Street Languages,,Agrahara Dasarahalli,Muthialpet,Chennai,,,Tamil Nadu,,
Chetty Street Languages,,Agrahara Dasarahalli,Muthialpet,Chennai,,,Tamil Nadu,,
"No 204, Mint Street",,Agrahara Dasarahalli,,Chennai,,,Tamil Nadu,,
Gori Street Laps,,Agrahara Dasarahalli,,Chennai,,,Tamil Nadu,,
Stirincar Street,,Agrahara Dasarahalli,,Chennai,,,Tamil Nadu,,
Ramakrishna Street,,,,Chennai,,,Tamil Nadu,,
Thambu Chetty Street,,,Mannady,Chennai,,,Tamil Nadu,,
Ramakrishna Street,,,,Chennai,,,Tamil Nadu,,
Pavalakkarai Street,,,,Chennai,,,Tamil Nadu,,
,,,,Chennai,,,Tamil Nadu,,
Pedariar Koil Street,Broadway Theatre,,,Chennai,,,Tamil Nadu,,
C S Nagar,Perambur Barracks Road,,,Chennai,,,Tamil Nadu,,
Paramanantham Street,,,,Chennai,,,Tamil Nadu,,
All Mestry Street,Sevenwells,,,Chennai,,,Tamil Nadu,,
Hakker Jason Street,,,,Chennai,,,Tamil Nadu,,
Nattu Pillaiyar Koil Street,,,,Chennai,,,Tamil Nadu,,
Porchukees Charch Street,Sevenwells,,,Chennai,,,Tamil Nadu,,
Pannaikara Andiyappan Street,,,,Chennai,,,Tamil Nadu,,
Govindappa Naicken Street,Sowcarpet,,,Chennai,,,Tamil Nadu,,
N. S. Garden Street,Mannady,,,Chennai,,,Tamil Nadu,,
Anna Pillai Street,George Town,,,Chennai,,,Tamil Nadu,,
Nattu Pillaiyar Koil Street,,,,Chennai,,,Tamil Nadu,,
Appasami Street,,,,Chennai,,,Tamil Nadu,,
Nattu Pillaiyar Koil Street,,,,Chennai,,,Tamil Nadu,,
Vaidhiyanadhan Street,,,,Chennai,,,Tamil Nadu,,
Nattu Pillaiyar Koil Street,,,,Chennai,,,Tamil Nadu,,
Muthusha Street,,,,Chennai,,,Tamil Nadu,,
Vaithiyanadan Street,,,,Chennai,,,Tamil Nadu,,
2Nd Narayanan Street,Seven Wells,,,Chennai,,,Tamil Nadu,,
Coral Merchant Street,Mannady,,,Chennai,,,Tamil Nadu,,
